{
  "type": "FeatureCollection",
  "name": "smm",
  "crs": { "type": "name", "properties": { "name": "urn:ogc:def:crs:OGC:1.3:CRS84" } },
  "metadata": {
    "title": "Маршруты СММ — эталонные дворовые территории",
    "description": "Слой эталонных дворовых территорий трёх типов для отработки маршрутов средств малой механизации (роторных снегоуборщиков) в зимний период.",
    "note": "Контуры ориентировочные (габаритный прямоугольник от адресной точки). Перед утверждением подлежат замене на фактические контуры из паспортов благоустройства АСУ ОДС.",
    "crs_note": "Координаты в WGS84/CRS84 (долгота, широта) — формат, который принимает Яндекс Карты JS API v3 без пересчёта."
  },
  "features": [
    {
      "type": "Feature",
      "id": "smm-dt1",
      "properties": {
        "district": "Сокол",
        "section": "Участок 1",
        "name": "ДТ-1 «Каре» — замкнутый двор с кольцевым тротуаром",
        "code": "ДТ-1",
        "addr": "ул. Новопесчаная, д. 21",
        "type_short": "Каре",
        "scheme": "smm/dt1.svg",
        "detail": "smm/#dt1",
        "variant": "В-5 · адаптивная (доворот на углах)",
        "machine": "СММ-1 · снегоуборщик самоходный шнекороторный, захват 62 см",
        "nozzle": "азимут 90° влево (внутрь двора), дефлектор 40° навесной, R = 5,0 м",
        "passes": 5,
        "walk_area_m2": 403,
        "snow_m3_per_10cm": 40,
        "storage": "Н-1 — центральный газон, ёмкость 395 м³",
        "hit_rate_pct": 84.3,
        "violation_pct": 0.0,
        "cycle_min": 48
      },
      "geometry": {
        "type": "Polygon",
        "coordinates": [[
          [37.51172, 55.79461],
          [37.51332, 55.79461],
          [37.51332, 55.79428],
          [37.51172, 55.79428],
          [37.51172, 55.79461]
        ]]
      }
    },
    {
      "type": "Feature",
      "id": "smm-dt2",
      "properties": {
        "district": "Восточное Дегунино",
        "section": "Участок 1",
        "name": "ДТ-2 «Линейный» — дом · тротуар · газон с рядовой посадкой",
        "code": "ДТ-2",
        "addr": "ул. Дубнинская, д. 30",
        "type_short": "Линейный",
        "scheme": "smm/dt2.svg",
        "detail": "smm/#dt2",
        "variant": "В-3 · адаптивная «оконная» схема",
        "machine": "СММ-1 · снегоуборщик самоходный шнекороторный, захват 62 см",
        "nozzle": "азимут 90° вправо, дефлектор 20° настильный, R = 5,0–7,0 м, доворот 75°/105° в створе ствола",
        "passes": 5,
        "walk_area_m2": 240,
        "snow_m3_per_10cm": 24,
        "storage": "Н-2 — «окна» газона между кронами, ёмкость 41 м³",
        "hit_rate_pct": 89.9,
        "violation_pct": 4.9,
        "cycle_min": 19
      },
      "geometry": {
        "type": "Polygon",
        "coordinates": [[
          [37.55843, 55.87757],
          [37.55985, 55.87757],
          [37.55985, 55.87716],
          [37.55843, 55.87716],
          [37.55843, 55.87757]
        ]]
      }
    },
    {
      "type": "Feature",
      "id": "smm-dt3",
      "properties": {
        "district": "Бескудниковский",
        "section": "Участок 2",
        "name": "ДТ-3 «Гребёнка» — узкий проход между домами, газоны и клумбы",
        "code": "ДТ-3",
        "addr": "Бескудниковский б-р, д. 20",
        "type_short": "Гребёнка",
        "scheme": "smm/dt3.svg",
        "detail": "smm/#dt3",
        "variant": "В-3 · продольная «эстафетная»",
        "machine": "СММ-1 · снегоуборщик самоходный шнекороторный, захват 62 см",
        "nozzle": "азимут 0° строго вперёд по ходу, дефлектор 20° настильный, R = 7,0 м",
        "passes": 4,
        "walk_area_m2": 72,
        "snow_m3_per_10cm": 7,
        "storage": "Н-3 — подготовленная площадка у проезда, ёмкость 74 м³",
        "hit_rate_pct": 83.3,
        "violation_pct": 0.0,
        "cycle_min": 50,
        "warning": "Ширина прохода 1,8 м < 3 м — механизированная уборка исключена, работы ведутся СММ в составе ручной уборки"
      },
      "geometry": {
        "type": "Polygon",
        "coordinates": [[
          [37.55950, 55.86586],
          [37.56092, 55.86586],
          [37.56092, 55.86516],
          [37.55950, 55.86516],
          [37.55950, 55.86586]
        ]]
      }
    }
  ]
}
