{"type":"FeatureCollection","features":[{"type":"Feature","properties":{"district":"Аэропорт","name":"Аэропорт","OKATO":"45277553","OKTMO":"45333000","yards_count":163},"geometry":{"type":"Polygon","coordinates":[[[37.51101,55.80608],[37.51137,55.80647],[37.51279,55.80803],[37.51466,55.81023],[37.51513,55.81053],[37.51594,55.81136],[37.51631,55.81173],[37.51685,55.81192],[37.5195,55.81517],[37.52714,55.81552],[37.52891,55.81559],[37.5301,55.81561],[37.53137,55.81555],[37.53259,55.81542],[37.53397,55.81514],[37.53528,55.81477],[37.53648,55.81426],[37.53715,55.81392],[37.53949,55.81262],[37.54078,55.8119],[37.54129,55.81161],[37.54413,55.81002],[37.54946,55.80708],[37.54936,55.80704],[37.54846,55.80664],[37.54944,55.8059],[37.54964,55.80574],[37.55091,55.80475],[37.55108,55.80462],[37.5537,55.80246],[37.55379,55.80239],[37.55388,55.80232],[37.55465,55.8017],[37.55512,55.80131],[37.55513,55.8013],[37.55535,55.80112],[37.5558,55.80073],[37.55673,55.79991],[37.55679,55.79983],[37.55694,55.79967],[37.5572,55.79933],[37.55725,55.79927],[37.55733,55.79919],[37.55799,55.79858],[37.55824,55.79836],[37.55859,55.79804],[37.55862,55.798],[37.55876,55.79787],[37.55917,55.79748],[37.55944,55.79723],[37.56003,55.79669],[37.56097,55.79582],[37.56108,55.79574],[37.56243,55.79463],[37.56333,55.7939],[37.56363,55.79372],[37.56381,55.79361],[37.56484,55.79324],[37.56504,55.79317],[37.56572,55.79291],[37.56686,55.79249],[37.56702,55.79242],[37.56753,55.79224],[37.56868,55.79183],[37.56919,55.79159],[37.56959,55.79143],[37.56992,55.79144],[37.57253,55.79157],[37.57454,55.79166],[37.5742,55.79149],[37.57377,55.79121],[37.57004,55.78856],[37.56814,55.78716],[37.56642,55.78593],[37.56574,55.78548],[37.55117,55.79191],[37.53119,55.80071],[37.52201,55.80331],[37.52044,55.80374],[37.51601,55.80485],[37.51361,55.80545],[37.51101,55.80608]]]}},{"type":"Feature","properties":{"district":"Беговой","name":"Беговой","OKATO":"45277556","OKTMO":"45334000","yards_count":123},"geometry":{"type":"Polygon","coordinates":[[[37.54084,55.78496],[37.54188,55.78541],[37.54272,55.78592],[37.54574,55.78813],[37.55068,55.79161],[37.55117,55.79191],[37.56574,55.78548],[37.56642,55.78593],[37.56814,55.78716],[37.57004,55.78856],[37.57377,55.79121],[37.5742,55.79149],[37.57454,55.79166],[37.58317,55.79213],[37.58393,55.79216],[37.58534,55.79281],[37.58647,55.79338],[37.58774,55.79258],[37.58817,55.7923],[37.58858,55.792],[37.58844,55.79161],[37.58827,55.79118],[37.58814,55.79075],[37.58801,55.79024],[37.58787,55.78971],[37.58768,55.78864],[37.58756,55.78806],[37.58742,55.78748],[37.58699,55.78595],[37.58691,55.78568],[37.58684,55.78542],[37.58679,55.78519],[37.58656,55.78439],[37.58644,55.78398],[37.58639,55.78378],[37.58634,55.78358],[37.58624,55.78325],[37.58612,55.78289],[37.58607,55.7827],[37.58596,55.78238],[37.58585,55.78206],[37.58567,55.78161],[37.58544,55.78102],[37.5852,55.78048],[37.58511,55.78034],[37.58499,55.78015],[37.58479,55.77987],[37.58457,55.77968],[37.58406,55.77927],[37.58391,55.77916],[37.58378,55.77906],[37.58342,55.77882],[37.58325,55.77871],[37.58307,55.7786],[37.58266,55.77837],[37.58256,55.77831],[37.58246,55.77825],[37.58224,55.77811],[37.58202,55.77797],[37.58182,55.77783],[37.58145,55.77762],[37.58131,55.77754],[37.5811,55.77743],[37.57999,55.77693],[37.5781,55.77615],[37.57746,55.77594],[37.57673,55.77575],[37.57599,55.77561],[37.57523,55.77552],[37.57369,55.77548],[37.57312,55.77547],[37.57108,55.77543],[37.56692,55.775],[37.55917,55.77422],[37.55551,55.77384],[37.55192,55.77341],[37.55169,55.77413],[37.5519,55.77418],[37.55212,55.77422],[37.55228,55.77427],[37.5525,55.77433],[37.5527,55.7744],[37.55284,55.77445],[37.55296,55.7745],[37.55311,55.77456],[37.55323,55.77462],[37.55342,55.77471],[37.55359,55.7748],[37.55381,55.77494],[37.55395,55.77503],[37.55415,55.7752],[37.55426,55.77529],[37.55434,55.77538],[37.55454,55.77557],[37.55463,55.77567],[37.55471,55.77576],[37.55503,55.77612],[37.55397,55.77643],[37.55308,55.77668],[37.55212,55.77696],[37.55154,55.77712],[37.55123,55.77724],[37.55111,55.77729],[37.55075,55.77749],[37.55064,55.77756],[37.55053,55.77763],[37.54723,55.7797],[37.54588,55.78056],[37.54573,55.78066],[37.54564,55.78072],[37.5455,55.7808],[37.54537,55.78091],[37.5453,55.78103],[37.54511,55.78141],[37.54487,55.78195],[37.54428,55.78328],[37.54409,55.78358],[37.54328,55.78372],[37.54199,55.78346],[37.5415,55.78428],[37.54084,55.78496]]]}},{"type":"Feature","properties":{"district":"Бескудниковский","name":"Бескудниковский","OKATO":"45277559","OKTMO":"45335000","yards_count":138},"geometry":{"type":"Polygon","coordinates":[[[37.52966,55.87283],[37.52982,55.87291],[37.53064,55.87333],[37.53078,55.87317],[37.53086,55.87309],[37.53118,55.87315],[37.53112,55.87325],[37.53124,55.87327],[37.53145,55.87332],[37.5319,55.87341],[37.53095,55.87449],[37.5326,55.87486],[37.53326,55.875],[37.53326,55.87508],[37.53416,55.87528],[37.5339,55.87575],[37.5338,55.87598],[37.53375,55.87612],[37.53395,55.87615],[37.53485,55.87631],[37.53494,55.87632],[37.53637,55.87657],[37.53815,55.87688],[37.53854,55.87694],[37.53902,55.87703],[37.53927,55.87707],[37.54005,55.8772],[37.54137,55.87743],[37.54218,55.87757],[37.54352,55.8778],[37.54359,55.87782],[37.54504,55.87807],[37.54546,55.87814],[37.54591,55.87822],[37.54625,55.87831],[37.54668,55.87734],[37.54703,55.87739],[37.54727,55.87743],[37.548,55.87755],[37.54852,55.87763],[37.54948,55.87778],[37.5507,55.87797],[37.55143,55.87808],[37.55223,55.87821],[37.55329,55.87837],[37.55319,55.87856],[37.55441,55.87876],[37.55636,55.87909],[37.55648,55.8789],[37.55704,55.87894],[37.55759,55.87898],[37.55759,55.87892],[37.5576,55.87819],[37.55761,55.87807],[37.55763,55.87783],[37.55763,55.87737],[37.55763,55.87689],[37.55763,55.87629],[37.5577,55.87545],[37.55782,55.87492],[37.55819,55.87419],[37.55846,55.87385],[37.55857,55.87371],[37.55865,55.87361],[37.55953,55.87249],[37.55975,55.87222],[37.56028,55.87154],[37.56094,55.87069],[37.56104,55.87056],[37.56123,55.87032],[37.56165,55.8698],[37.56171,55.86972],[37.56188,55.86951],[37.56265,55.86852],[37.56292,55.86818],[37.56311,55.86794],[37.56327,55.86773],[37.56375,55.86713],[37.56394,55.86688],[37.56399,55.86682],[37.56408,55.8667],[37.56528,55.86517],[37.56544,55.86497],[37.56608,55.86416],[37.56636,55.8638],[37.56659,55.86351],[37.56423,55.86304],[37.56396,55.86299],[37.56465,55.86155],[37.56434,55.86158],[37.56407,55.86159],[37.56321,55.86152],[37.56237,55.86146],[37.56258,55.8607],[37.56267,55.86016],[37.56268,55.85939],[37.56349,55.85939],[37.56383,55.85938],[37.56445,55.85938],[37.56503,55.85937],[37.56495,55.85983],[37.56579,55.85984],[37.56581,55.85973],[37.56708,55.85974],[37.56709,55.85928],[37.56787,55.85927],[37.5678,55.8588],[37.56768,55.85828],[37.56751,55.85772],[37.5673,55.85721],[37.56715,55.85681],[37.56675,55.85571],[37.56654,55.85507],[37.56647,55.85491],[37.56669,55.85465],[37.56682,55.85443],[37.57271,55.85473],[37.57264,55.85416],[37.57268,55.85321],[37.57276,55.85236],[37.57291,55.85142],[37.57309,55.85062],[37.57331,55.84984],[37.57367,55.84879],[37.57377,55.84848],[37.57358,55.84851],[37.5732,55.84857],[37.57231,55.84873],[37.57134,55.84889],[37.5704,55.84906],[37.56978,55.84916],[37.56923,55.84924],[37.56878,55.8493],[37.56832,55.84936],[37.56751,55.84944],[37.56692,55.8495],[37.56672,55.84979],[37.56654,55.85001],[37.56635,55.85023],[37.56574,55.85098],[37.564,55.8532],[37.56077,55.85697],[37.56025,55.85735],[37.56002,55.85748],[37.55943,55.85778],[37.55478,55.8602],[37.5544,55.86039],[37.55167,55.86178],[37.55013,55.86266],[37.54898,55.86336],[37.54852,55.86365],[37.54784,55.86384],[37.54748,55.86405],[37.54595,55.86487],[37.54476,55.86543],[37.54369,55.86594],[37.5413,55.86707],[37.54114,55.86715],[37.54054,55.86743],[37.53837,55.86845],[37.53811,55.86857],[37.53732,55.86894],[37.5366,55.86927],[37.53645,55.86934],[37.53596,55.86957],[37.53492,55.87006],[37.53455,55.87024],[37.53434,55.87033],[37.53369,55.87065],[37.53324,55.87085],[37.53303,55.87095],[37.53279,55.87105],[37.53183,55.87145],[37.53163,55.87153],[37.53144,55.87163],[37.53124,55.87173],[37.53109,55.87182],[37.53093,55.87192],[37.53079,55.87201],[37.53064,55.87211],[37.53028,55.87238],[37.52983,55.87271],[37.52966,55.87283]]]}},{"type":"Feature","properties":{"district":"Войковский","name":"Войковский","OKATO":"45277565","OKTMO":"45336000","yards_count":155},"geometry":{"type":"Polygon","coordinates":[[[37.47987,55.84134],[37.48138,55.83933],[37.48184,55.83934],[37.48209,55.83934],[37.48325,55.83934],[37.48455,55.83936],[37.48704,55.83937],[37.48741,55.83937],[37.48776,55.83937],[37.4878,55.83937],[37.48827,55.83937],[37.49218,55.83935],[37.49398,55.83934],[37.50491,55.83717],[37.50526,55.83693],[37.50541,55.83684],[37.50555,55.83672],[37.50575,55.83656],[37.50601,55.83634],[37.50692,55.83558],[37.50723,55.83522],[37.50753,55.83479],[37.50772,55.83446],[37.50779,55.83432],[37.50789,55.83412],[37.50863,55.83326],[37.50875,55.83314],[37.50882,55.83293],[37.50875,55.83274],[37.50778,55.83209],[37.50836,55.8318],[37.50985,55.83101],[37.51066,55.83056],[37.5109,55.8304],[37.51095,55.83032],[37.511,55.83024],[37.51108,55.83017],[37.51132,55.82996],[37.51153,55.82982],[37.51205,55.82951],[37.51232,55.82935],[37.51351,55.82864],[37.51397,55.82837],[37.5145,55.82805],[37.51494,55.82779],[37.51492,55.8277],[37.51487,55.82763],[37.51472,55.82756],[37.5145,55.8275],[37.51435,55.82746],[37.51439,55.8274],[37.51445,55.82733],[37.51514,55.82647],[37.51531,55.82626],[37.51552,55.826],[37.51569,55.82584],[37.51572,55.8258],[37.51805,55.823],[37.51815,55.82279],[37.51823,55.8227],[37.51949,55.82131],[37.51957,55.82119],[37.51954,55.82105],[37.51786,55.81893],[37.51783,55.81872],[37.51788,55.81863],[37.5218,55.81755],[37.52083,55.81722],[37.51997,55.81637],[37.51986,55.81624],[37.51958,55.81592],[37.51951,55.81587],[37.5195,55.81517],[37.51654,55.81506],[37.51369,55.81494],[37.51163,55.81485],[37.50978,55.81477],[37.50808,55.81475],[37.5029,55.81489],[37.50025,55.81496],[37.49818,55.81501],[37.49552,55.8151],[37.4935,55.81519],[37.48814,55.8153],[37.48732,55.81532],[37.48684,55.81535],[37.48668,55.81687],[37.48656,55.81709],[37.4866,55.81735],[37.48669,55.81792],[37.48695,55.81884],[37.48742,55.81987],[37.48791,55.82062],[37.48891,55.82168],[37.4898,55.82247],[37.49062,55.82312],[37.49191,55.82386],[37.49335,55.82449],[37.49108,55.82727],[37.49095,55.82724],[37.4907,55.82717],[37.49029,55.82706],[37.48979,55.82693],[37.48843,55.82657],[37.48716,55.82648],[37.48638,55.82648],[37.4856,55.82652],[37.48428,55.82671],[37.48353,55.82684],[37.48289,55.82693],[37.48139,55.82701],[37.48039,55.82702],[37.47883,55.82665],[37.47849,55.82657],[37.4782,55.82661],[37.47799,55.82679],[37.4763,55.82823],[37.47624,55.82828],[37.47577,55.82869],[37.47442,55.82983],[37.47447,55.83],[37.47465490641067,55.830022572990394],[37.475454,55.8292844],[37.4761444,55.8287664],[37.4762632,55.8287464],[37.4769091,55.8286374],[37.477691,55.8285034],[37.4785564,55.8283563],[37.4785516,55.8284676],[37.4787507,55.828475],[37.4787499,55.8288113],[37.4792497,55.8290287],[37.4794964,55.8290107],[37.4798381,55.828967],[37.4804738,55.8287885],[37.4814292,55.8288017],[37.4818389,55.8288702],[37.4824459,55.8290933],[37.4826046,55.8292414],[37.4825267,55.8293773],[37.482502,55.8294717],[37.4826737,55.8295208],[37.4828435,55.8295016],[37.4830646,55.8297549],[37.4837366,55.8307674],[37.4836375,55.8313947],[37.4833556,55.8314325],[37.4830947,55.831776],[37.4830196,55.8318541],[37.4818869,55.8316288],[37.4815383,55.8315595],[37.4814578,55.8316891],[37.4818118,55.8318066],[37.481313,55.8318005],[37.4812389,55.8319165],[37.4819244,55.8320486],[37.4816029,55.8324787],[37.481438,55.832671],[37.4813508,55.8327739],[37.4811146,55.8330756],[37.4811575,55.833094],[37.4811049,55.8331555],[37.4821453,55.833464],[37.4829101,55.8336543],[37.4830664,55.8336911],[37.4825378,55.8342781],[37.4824872,55.8343289],[37.482459,55.8343632],[37.4818857,55.8349505],[37.4817908,55.8349446],[37.4810356,55.834714],[37.4807621,55.8346232],[37.4809016,55.83445],[37.4799179,55.8341888],[37.4788516,55.8353849],[37.4786848,55.8354349],[37.4786711,55.8355568],[37.4786719,55.8357196],[37.4786454,55.8359357],[37.4785764,55.836198],[37.4784517,55.8364185],[37.4783516,55.8365831],[37.4782359,55.8367325],[37.4781684,55.8368141],[37.4781161,55.8368845],[37.4780917,55.8369144],[37.477984,55.8370066],[37.4776429,55.8373918],[37.4775038,55.8375664],[37.4773693,55.8377352],[37.4769831,55.8377111],[37.4767578,55.8376493],[37.4767274,55.8376829],[37.4766117,55.8378109],[37.4765108,55.8379226],[37.4761051,55.8383713],[37.4760504,55.8384318],[37.4761811,55.8384672],[37.4759462,55.8387017],[37.4757499,55.8389055],[37.4756581,55.8390003],[37.4754649,55.8390666],[37.4754327,55.8390997],[37.4754438,55.8391734],[37.4760105,55.8393693],[37.4761309,55.8394414],[37.4766724,55.8394999],[37.4770576,55.8395765],[37.477254,55.8396914],[37.4773583,55.8397719],[37.4774076,55.8398297],[37.4773486,55.8398755],[37.4772536,55.8399381],[37.4768525,55.8399721],[37.4767992,55.8401563],[37.4765205,55.8401747],[37.4764816,55.8403371],[37.4765569,55.8404186],[37.4766156,55.840523],[37.4767685,55.8406118],[37.4767122,55.8407444],[37.476806,55.8408618],[37.4769938,55.8409763],[37.47694267395296,55.84108112082577],[37.47987,55.84134]]]}},{"type":"Feature","properties":{"district":"Восточное Дегунино","name":"Восточное Дегунино","OKATO":"45277568","OKTMO":"45337000","yards_count":97},"geometry":{"type":"Polygon","coordinates":[[[37.54304,55.88724],[37.54339,55.88724],[37.54773,55.88734],[37.54791,55.88733],[37.54807,55.8873],[37.54823,55.88728],[37.5507,55.8873],[37.55072,55.88764],[37.55096,55.89062],[37.55034,55.89063],[37.55031,55.89172],[37.55066,55.89184],[37.55119,55.89184],[37.55154,55.8928],[37.55157,55.8929],[37.55144,55.89319],[37.55146,55.89691],[37.5517,55.89738],[37.55198,55.89777],[37.55286,55.89746],[37.55904,55.89523],[37.56223,55.89404],[37.56307,55.8937],[37.56406,55.89327],[37.56475,55.89284],[37.56537,55.89239],[37.5659,55.89193],[37.56636,55.89142],[37.56676,55.89084],[37.56706,55.89016],[37.5672,55.88928],[37.5674,55.8873],[37.5675,55.88455],[37.56768,55.88264],[37.56816,55.87828],[37.56829,55.87759],[37.56847,55.87699],[37.56929,55.87499],[37.57,55.87331],[37.57047,55.87218],[37.57137,55.87018],[37.57262,55.86711],[37.57319,55.86579],[37.57392,55.86401],[37.57433,55.863],[37.5746,55.86212],[37.57468,55.86114],[37.57463,55.86046],[37.57455,55.85989],[37.57435,55.85922],[37.57415,55.8586],[37.57344,55.85687],[37.57279,55.85524],[37.57271,55.85473],[37.56682,55.85443],[37.56669,55.85465],[37.56647,55.85491],[37.56654,55.85507],[37.56675,55.85571],[37.56715,55.85681],[37.5673,55.85721],[37.56751,55.85772],[37.56768,55.85828],[37.5678,55.8588],[37.56787,55.85927],[37.56709,55.85928],[37.56708,55.85974],[37.56581,55.85973],[37.56579,55.85984],[37.56495,55.85983],[37.56503,55.85937],[37.56445,55.85938],[37.56383,55.85938],[37.56349,55.85939],[37.56268,55.85939],[37.56267,55.86016],[37.56258,55.8607],[37.56237,55.86146],[37.56321,55.86152],[37.56407,55.86159],[37.56434,55.86158],[37.56465,55.86155],[37.56396,55.86299],[37.56423,55.86304],[37.56659,55.86351],[37.56636,55.8638],[37.56608,55.86416],[37.56544,55.86497],[37.56528,55.86517],[37.56408,55.8667],[37.56399,55.86682],[37.56394,55.86688],[37.56375,55.86713],[37.56327,55.86773],[37.56311,55.86794],[37.56292,55.86818],[37.56265,55.86852],[37.56188,55.86951],[37.56171,55.86972],[37.56165,55.8698],[37.56123,55.87032],[37.56104,55.87056],[37.56094,55.87069],[37.56028,55.87154],[37.55975,55.87222],[37.55953,55.87249],[37.55865,55.87361],[37.55857,55.87371],[37.55846,55.87385],[37.55819,55.87419],[37.55782,55.87492],[37.5577,55.87545],[37.55763,55.87629],[37.55763,55.87689],[37.55763,55.87737],[37.55763,55.87783],[37.55761,55.87807],[37.5576,55.87819],[37.55759,55.87892],[37.55759,55.87898],[37.55704,55.87894],[37.55648,55.8789],[37.55636,55.87909],[37.55441,55.87876],[37.55319,55.87856],[37.55329,55.87837],[37.55223,55.87821],[37.55143,55.87808],[37.5507,55.87797],[37.54948,55.87778],[37.54852,55.87763],[37.548,55.87755],[37.54727,55.87743],[37.54703,55.87739],[37.54668,55.87734],[37.54625,55.87831],[37.54392,55.8822],[37.54368,55.88278],[37.5433,55.88415],[37.54318,55.8849],[37.54308,55.88591],[37.54304,55.88724]]]}},{"type":"Feature","properties":{"district":"Головинский","name":"Головинский","OKATO":"45277571","OKTMO":"45338000","yards_count":145},"geometry":{"type":"Polygon","coordinates":[[[37.47386,55.84975],[37.47422,55.84981],[37.4745,55.84986],[37.47523,55.85002],[37.47545,55.85005],[37.47644,55.8502],[37.478,55.85038],[37.47808,55.85039],[37.47919,55.85045],[37.47943,55.85045],[37.4823,55.85042],[37.48361,55.85034],[37.48487,55.85026],[37.485,55.85025],[37.48602,55.85029],[37.48673,55.85032],[37.48685,55.85033],[37.48702,55.85034],[37.4871,55.85034],[37.48887,55.85044],[37.48893,55.85044],[37.48956,55.85049],[37.49097,55.85065],[37.49106,55.85066],[37.49118,55.85068],[37.49125,55.85069],[37.49266,55.85101],[37.49385,55.85145],[37.49392,55.85148],[37.49476,55.85178],[37.49654,55.85245],[37.49685,55.85254],[37.49824,55.85305],[37.49856,55.85316],[37.4995,55.8535],[37.49976,55.8536],[37.5,55.85368],[37.50218,55.85447],[37.50318,55.85483],[37.50413,55.85518],[37.50775,55.85649],[37.50812,55.85662],[37.5104,55.85744],[37.51119,55.85774],[37.51098,55.8579],[37.50999,55.85861],[37.50939,55.85905],[37.50812,55.85998],[37.50531,55.86201],[37.50541,55.86205],[37.50548,55.86212],[37.5055,55.86218],[37.50552,55.86225],[37.5055,55.8623],[37.50546,55.86234],[37.50542,55.86239],[37.50587,55.86257],[37.50696,55.86308],[37.5082,55.86374],[37.50913,55.86408],[37.51017,55.86437],[37.51317,55.86655],[37.51437,55.86761],[37.54704,55.85352],[37.55518,55.84836],[37.55442,55.84809],[37.55319,55.84768],[37.55251,55.84745],[37.55196,55.84728],[37.55148,55.84714],[37.55101,55.84701],[37.55055,55.84689],[37.54995,55.84677],[37.54707,55.84618],[37.54518,55.8458],[37.54394,55.84554],[37.54349,55.84544],[37.54244,55.8452],[37.5417,55.84505],[37.53884,55.84458],[37.52707,55.84214],[37.52308,55.84104],[37.52231,55.84175],[37.52194,55.84161],[37.52093,55.84126],[37.52086,55.84124],[37.5208,55.84123],[37.52073,55.84123],[37.52065,55.84124],[37.52057,55.84125],[37.52024,55.84129],[37.51989,55.84133],[37.51949,55.84137],[37.51935,55.84138],[37.51927,55.84138],[37.51918,55.84138],[37.51909,55.84137],[37.51899,55.84136],[37.51889,55.84133],[37.51805,55.8411],[37.5178,55.84096],[37.51751,55.84078],[37.51724,55.84049],[37.51495,55.83803],[37.51474,55.83792],[37.5142,55.83788],[37.51096,55.83764],[37.50914,55.8375],[37.50516,55.83718],[37.50491,55.83717],[37.49398,55.83934],[37.49218,55.83935],[37.48827,55.83937],[37.4878,55.83937],[37.48776,55.83937],[37.48741,55.83937],[37.48704,55.83937],[37.48455,55.83936],[37.48325,55.83934],[37.48209,55.83934],[37.48184,55.83934],[37.48138,55.83933],[37.47987,55.84134],[37.47694267395296,55.84108112082577],[37.4769321,55.8411028],[37.4770358,55.8413445],[37.4773693,55.8416118],[37.4779245,55.8418679],[37.478028,55.8419665],[37.478192,55.8420433],[37.4779433,55.842029],[37.4778568,55.842151],[37.477654,55.8422103],[37.4771484,55.8422146],[37.4765935,55.8425362],[37.4765713,55.8425859],[37.4765153,55.8427115],[37.4764425,55.8428748],[37.4760152,55.8430763],[37.4757503,55.843092],[37.4755205,55.8431057],[37.4753674,55.84324],[37.4751629,55.8437409],[37.4751536,55.8437491],[37.4750886,55.8436973],[37.4750652,55.8436931],[37.4750384,55.8436694],[37.4749781,55.8436916],[37.4749364,55.8438889],[37.4749171,55.8442502],[37.4751,55.8442926],[37.4750721,55.8443313],[37.4748827,55.8443021],[37.4748178,55.8443988],[37.4746669,55.8446607],[37.4747308,55.8447505],[37.4747367,55.8447614],[37.4747453,55.8447771],[37.4746589,55.8448745],[37.4746589,55.8449739],[37.4746026,55.8451312],[37.474628,55.8451794],[37.4746656,55.8452096],[37.4747313,55.8452329],[37.4747554,55.8452464],[37.4747782,55.8452675],[37.4747782,55.8452961],[37.4747595,55.845318],[37.4746897,55.8453345],[37.4746173,55.8453383],[37.4745529,55.8453255],[37.4745127,55.8452991],[37.4744899,55.8452675],[37.4744363,55.845129],[37.4742196,55.8448677],[37.4742123,55.8448542],[37.4742051,55.8448411],[37.4740728,55.8446983],[37.473873,55.8445357],[37.4746283,55.8440061],[37.4739187,55.8436845],[37.4737497,55.843608],[37.4731525,55.8440094],[37.4722682,55.844078],[37.4718427,55.8440275],[37.4714617,55.8441569],[37.4709816,55.8443113],[37.470543,55.8444536],[37.4703593,55.8447435],[37.4699986,55.8453052],[37.4695251,55.8460596],[37.4692529,55.8464963],[37.4687768,55.8472334],[37.4687553,55.8472688],[37.4685126,55.8476731],[37.4683034,55.8480156],[37.4681285,55.8482849],[37.46811403052785,55.84830690812644],[37.47386,55.84975]]]}},{"type":"Feature","properties":{"district":"Дмитровский","name":"Дмитровский","OKATO":"45277574","OKTMO":"45339000","yards_count":206},"geometry":{"type":"Polygon","coordinates":[[[37.49625,55.89248],[37.49851,55.89347],[37.50282,55.89537],[37.50694,55.89718],[37.50722,55.8973],[37.51765,55.90199],[37.51994,55.90297],[37.52285,55.90423],[37.52445,55.90492],[37.526,55.90549],[37.52703,55.9058],[37.52794,55.90601],[37.52947,55.90633],[37.5319,55.90683],[37.53382,55.90717],[37.53719,55.90759],[37.53686,55.90706],[37.53761,55.90548],[37.53786,55.90506],[37.53806,55.90476],[37.53828,55.90447],[37.53869,55.904],[37.53923,55.9035],[37.53994,55.90288],[37.54058,55.90243],[37.54117,55.90203],[37.54166,55.90173],[37.54237,55.90137],[37.54289,55.90114],[37.54412,55.90067],[37.55198,55.89777],[37.5517,55.89738],[37.55146,55.89691],[37.55144,55.89319],[37.55157,55.8929],[37.55154,55.8928],[37.55119,55.89184],[37.55066,55.89184],[37.55031,55.89172],[37.55034,55.89063],[37.55096,55.89062],[37.55072,55.88764],[37.5507,55.8873],[37.54823,55.88728],[37.54807,55.8873],[37.54791,55.88733],[37.54773,55.88734],[37.54339,55.88724],[37.54304,55.88724],[37.54308,55.88591],[37.54318,55.8849],[37.5433,55.88415],[37.54368,55.88278],[37.54392,55.8822],[37.54625,55.87831],[37.54591,55.87822],[37.54546,55.87814],[37.54504,55.87807],[37.54359,55.87782],[37.54352,55.8778],[37.54218,55.87757],[37.54137,55.87743],[37.54005,55.8772],[37.53927,55.87707],[37.53902,55.87703],[37.53854,55.87694],[37.53815,55.87688],[37.53637,55.87657],[37.53494,55.87632],[37.53485,55.87631],[37.53395,55.87615],[37.53375,55.87612],[37.5338,55.87598],[37.5339,55.87575],[37.53416,55.87528],[37.53326,55.87508],[37.53326,55.875],[37.5326,55.87486],[37.53095,55.87449],[37.5319,55.87341],[37.53145,55.87332],[37.53124,55.87327],[37.53112,55.87325],[37.53118,55.87315],[37.53086,55.87309],[37.53078,55.87317],[37.53064,55.87333],[37.52982,55.87291],[37.52966,55.87283],[37.52941,55.873],[37.5275,55.87425],[37.52681,55.8747],[37.52655,55.87487],[37.52634,55.87502],[37.52618,55.87515],[37.52543,55.8759],[37.52461,55.8767],[37.52449,55.8768],[37.52357,55.87771],[37.52288,55.87836],[37.52285,55.8784],[37.52129,55.8799],[37.52122,55.87997],[37.52112,55.88007],[37.52041,55.88076],[37.51892,55.8822],[37.51821,55.8829],[37.51809,55.88301],[37.51753,55.88357],[37.51743,55.88366],[37.51728,55.8838],[37.51624,55.88483],[37.51618,55.88489],[37.51608,55.88498],[37.51567,55.88539],[37.51504,55.88601],[37.51478,55.88626],[37.51452,55.88652],[37.51434,55.88669],[37.51368,55.88734],[37.51166,55.88932],[37.5101,55.88855],[37.50894,55.88796],[37.50819,55.88753],[37.50743,55.88705],[37.50726,55.88694],[37.50655,55.88645],[37.50626,55.88626],[37.50614,55.88618],[37.50575,55.88645],[37.50522,55.88681],[37.50448,55.88732],[37.50378,55.8878],[37.50309,55.88829],[37.5026,55.88863],[37.50201,55.889],[37.50142,55.88937],[37.49839,55.89084],[37.49757,55.89129],[37.49625,55.89248]]]}},{"type":"Feature","properties":{"district":"Западное Дегунино","name":"Западное Дегунино","OKATO":"45277577","OKTMO":"45340000","yards_count":164},"geometry":{"type":"Polygon","coordinates":[[[37.4737,55.8853],[37.47593,55.88586],[37.47994,55.88732],[37.48015,55.88741],[37.48034,55.88749],[37.48053,55.88758],[37.4808,55.8877],[37.48105,55.88781],[37.48124,55.88789],[37.48148,55.888],[37.4817,55.88809],[37.48191,55.88819],[37.48209,55.88827],[37.48232,55.88838],[37.48241,55.88844],[37.48253,55.88853],[37.48264,55.88863],[37.48274,55.88876],[37.48284,55.8889],[37.48293,55.88906],[37.48303,55.88922],[37.48312,55.88938],[37.48326,55.88958],[37.48335,55.88973],[37.48343,55.88987],[37.4835,55.89003],[37.48352,55.8902],[37.48356,55.89041],[37.48358,55.89059],[37.4836,55.89065],[37.48399,55.89065],[37.48406,55.89048],[37.48412,55.89033],[37.48417,55.89015],[37.48423,55.88999],[37.48428,55.88986],[37.4844,55.88978],[37.48446,55.88957],[37.48456,55.8894],[37.48462,55.88923],[37.48462,55.88916],[37.48475,55.88893],[37.48485,55.8888],[37.48503,55.88866],[37.48528,55.88856],[37.48551,55.8885],[37.48572,55.88843],[37.48594,55.8884],[37.49244,55.89083],[37.49286,55.89098],[37.49299,55.89112],[37.49309,55.89128],[37.49322,55.89144],[37.49332,55.89159],[37.49341,55.89173],[37.4935,55.89187],[37.49363,55.89207],[37.49375,55.89225],[37.49387,55.89238],[37.494,55.89249],[37.49413,55.89258],[37.49435,55.89268],[37.4946,55.89276],[37.49481,55.89281],[37.49514,55.89282],[37.49551,55.89276],[37.49579,55.89271],[37.49603,55.8926],[37.49625,55.89248],[37.49757,55.89129],[37.49839,55.89084],[37.50142,55.88937],[37.50201,55.889],[37.5026,55.88863],[37.50309,55.88829],[37.50378,55.8878],[37.50448,55.88732],[37.50522,55.88681],[37.50575,55.88645],[37.50614,55.88618],[37.50626,55.88626],[37.50655,55.88645],[37.50726,55.88694],[37.50743,55.88705],[37.50819,55.88753],[37.50894,55.88796],[37.5101,55.88855],[37.51166,55.88932],[37.51368,55.88734],[37.51434,55.88669],[37.51452,55.88652],[37.51478,55.88626],[37.51504,55.88601],[37.51567,55.88539],[37.51608,55.88498],[37.51618,55.88489],[37.51624,55.88483],[37.51728,55.8838],[37.51743,55.88366],[37.51753,55.88357],[37.51809,55.88301],[37.51821,55.8829],[37.51892,55.8822],[37.52041,55.88076],[37.52112,55.88007],[37.52122,55.87997],[37.52129,55.8799],[37.52285,55.8784],[37.52288,55.87836],[37.52357,55.87771],[37.52449,55.8768],[37.52461,55.8767],[37.52543,55.8759],[37.52618,55.87515],[37.52634,55.87502],[37.52655,55.87487],[37.52681,55.8747],[37.5275,55.87425],[37.52941,55.873],[37.52966,55.87283],[37.52983,55.87271],[37.53028,55.87238],[37.53064,55.87211],[37.53079,55.87201],[37.53093,55.87192],[37.53109,55.87182],[37.53124,55.87173],[37.53144,55.87163],[37.53163,55.87153],[37.53183,55.87145],[37.53279,55.87105],[37.53303,55.87095],[37.53324,55.87085],[37.53369,55.87065],[37.53434,55.87033],[37.53455,55.87024],[37.53492,55.87006],[37.53596,55.86957],[37.53645,55.86934],[37.5366,55.86927],[37.53732,55.86894],[37.53811,55.86857],[37.53837,55.86845],[37.54054,55.86743],[37.54114,55.86715],[37.5413,55.86707],[37.54369,55.86594],[37.54476,55.86543],[37.54595,55.86487],[37.54748,55.86405],[37.54784,55.86384],[37.54852,55.86365],[37.54898,55.86336],[37.55013,55.86266],[37.55167,55.86178],[37.5544,55.86039],[37.55478,55.8602],[37.55943,55.85778],[37.56002,55.85748],[37.56025,55.85735],[37.56077,55.85697],[37.564,55.8532],[37.56574,55.85098],[37.56635,55.85023],[37.56654,55.85001],[37.56672,55.84979],[37.56692,55.8495],[37.56626,55.84956],[37.5659,55.8496],[37.56549,55.84963],[37.56507,55.84966],[37.56468,55.84969],[37.56432,55.8497],[37.564,55.8497],[37.56367,55.8497],[37.56314,55.8497],[37.56276,55.8497],[37.56238,55.84969],[37.562,55.84968],[37.56161,55.84966],[37.5613,55.84964],[37.561,55.84962],[37.56059,55.84958],[37.56018,55.84954],[37.5598,55.8495],[37.55944,55.84945],[37.55913,55.84941],[37.5588,55.84935],[37.55851,55.8493],[37.55822,55.84924],[37.55794,55.84918],[37.55764,55.84911],[37.55728,55.84902],[37.55692,55.84892],[37.55662,55.84883],[37.55629,55.84873],[37.55599,55.84863],[37.55568,55.84853],[37.55551,55.84847],[37.55518,55.84836],[37.54704,55.85352],[37.51437,55.86761],[37.51257,55.86846],[37.47453,55.88488],[37.4737,55.8853]]]}},{"type":"Feature","properties":{"district":"Коптево","name":"Коптево","OKATO":"45277580","OKTMO":"45341000","yards_count":207},"geometry":{"type":"Polygon","coordinates":[[[37.50491,55.83717],[37.50516,55.83718],[37.50914,55.8375],[37.51096,55.83764],[37.5142,55.83788],[37.51474,55.83792],[37.51495,55.83803],[37.51724,55.84049],[37.51751,55.84078],[37.5178,55.84096],[37.51805,55.8411],[37.51889,55.84133],[37.51899,55.84136],[37.51909,55.84137],[37.51918,55.84138],[37.51927,55.84138],[37.51935,55.84138],[37.51949,55.84137],[37.51989,55.84133],[37.52024,55.84129],[37.52057,55.84125],[37.52065,55.84124],[37.52073,55.84123],[37.5208,55.84123],[37.52086,55.84124],[37.52093,55.84126],[37.52194,55.84161],[37.52231,55.84175],[37.52308,55.84104],[37.52707,55.84214],[37.53884,55.84458],[37.5417,55.84505],[37.54244,55.8452],[37.54349,55.84544],[37.54394,55.84554],[37.54518,55.8458],[37.54707,55.84618],[37.54995,55.84677],[37.55055,55.84689],[37.55101,55.84701],[37.55148,55.84714],[37.55196,55.84728],[37.55251,55.84745],[37.55319,55.84768],[37.55442,55.84809],[37.55518,55.84836],[37.56054,55.84484],[37.55877,55.8441],[37.54931,55.84055],[37.54236,55.83801],[37.54061,55.83733],[37.53737,55.83579],[37.5342,55.83396],[37.53364,55.83351],[37.53178,55.83139],[37.53203,55.83133],[37.53204,55.83111],[37.53206,55.83068],[37.53245,55.82962],[37.53245,55.82953],[37.5326,55.82817],[37.53269,55.82699],[37.5328,55.82578],[37.5328,55.82569],[37.53283,55.82547],[37.53271,55.82496],[37.53268,55.82484],[37.53268,55.82464],[37.53234,55.82368],[37.53216,55.82346],[37.532,55.82287],[37.53194,55.82261],[37.53191,55.82228],[37.53195,55.82182],[37.53214,55.82168],[37.53252,55.82139],[37.53388,55.82069],[37.53524,55.81974],[37.53534,55.81964],[37.53551,55.81945],[37.53613,55.81868],[37.53616,55.81864],[37.53747,55.81751],[37.53789,55.81711],[37.53842,55.81642],[37.53849,55.81637],[37.53849,55.81631],[37.53905,55.81548],[37.53939,55.81496],[37.53988,55.81414],[37.541,55.81221],[37.54109,55.81207],[37.54078,55.8119],[37.53949,55.81262],[37.53715,55.81392],[37.53648,55.81426],[37.53528,55.81477],[37.53397,55.81514],[37.53259,55.81542],[37.53137,55.81555],[37.5301,55.81561],[37.52891,55.81559],[37.52714,55.81552],[37.5195,55.81517],[37.51951,55.81587],[37.51958,55.81592],[37.51986,55.81624],[37.51997,55.81637],[37.52083,55.81722],[37.5218,55.81755],[37.51788,55.81863],[37.51783,55.81872],[37.51786,55.81893],[37.51954,55.82105],[37.51957,55.82119],[37.51949,55.82131],[37.51823,55.8227],[37.51815,55.82279],[37.51805,55.823],[37.51572,55.8258],[37.51569,55.82584],[37.51552,55.826],[37.51531,55.82626],[37.51514,55.82647],[37.51445,55.82733],[37.51439,55.8274],[37.51435,55.82746],[37.5145,55.8275],[37.51472,55.82756],[37.51487,55.82763],[37.51492,55.8277],[37.51494,55.82779],[37.5145,55.82805],[37.51397,55.82837],[37.51351,55.82864],[37.51232,55.82935],[37.51205,55.82951],[37.51153,55.82982],[37.51132,55.82996],[37.51108,55.83017],[37.511,55.83024],[37.51095,55.83032],[37.5109,55.8304],[37.51066,55.83056],[37.50985,55.83101],[37.50836,55.8318],[37.50778,55.83209],[37.50875,55.83274],[37.50882,55.83293],[37.50875,55.83314],[37.50863,55.83326],[37.50789,55.83412],[37.50779,55.83432],[37.50772,55.83446],[37.50753,55.83479],[37.50723,55.83522],[37.50692,55.83558],[37.50601,55.83634],[37.50575,55.83656],[37.50555,55.83672],[37.50541,55.83684],[37.50526,55.83693],[37.50491,55.83717]]]}},{"type":"Feature","properties":{"district":"Левобережный","name":"Левобережный","OKATO":"45277583","OKTMO":"45342000","yards_count":137},"geometry":{"type":"MultiPolygon","coordinates":[[[[37.43749,55.87989],[37.43812,55.88009],[37.44047,55.88082],[37.4407,55.88094],[37.44088,55.88104],[37.44107,55.88114],[37.4412,55.88123],[37.44135,55.88135],[37.44145,55.88147],[37.44151,55.88157],[37.44158,55.88169],[37.44164,55.8818],[37.4417,55.88193],[37.44176,55.88211],[37.44183,55.88228],[37.44188,55.88243],[37.44193,55.88257],[37.44198,55.88276],[37.44199,55.88289],[37.44197,55.8831],[37.44198,55.88326],[37.44194,55.88334],[37.44185,55.88351],[37.44175,55.88362],[37.44165,55.88372],[37.44154,55.88384],[37.44242,55.88417],[37.44253,55.88408],[37.44264,55.88401],[37.44281,55.88388],[37.44296,55.88377],[37.44291,55.88375],[37.4437,55.88325],[37.44382,55.88319],[37.44396,55.88314],[37.44428,55.88308],[37.44457,55.88304],[37.44493,55.88302],[37.44515,55.883],[37.44541,55.88298],[37.44572,55.88296],[37.44609,55.88292],[37.44693,55.88286],[37.44721,55.88284],[37.44747,55.88282],[37.44773,55.8828],[37.44799,55.88279],[37.44834,55.88277],[37.44873,55.88277],[37.45027,55.88286],[37.4546,55.88303],[37.45557,55.8832],[37.45641722142857,55.8832],[37.4564244,55.883017],[37.4564475,55.8824274],[37.4564621,55.8820551],[37.4567478,55.8806904],[37.4564045,55.8801418],[37.45629,55.8799477],[37.4562761,55.8797791],[37.4562996,55.8796366],[37.4563761,55.8795292],[37.4569605,55.8790695],[37.4570211,55.87899],[37.457027,55.8788774],[37.4568666,55.8780857],[37.456832,55.8780047],[37.45646,55.8771327],[37.4562494,55.8767374],[37.4559576,55.8761897],[37.4558735,55.8757101],[37.4557374,55.8750661],[37.4555343,55.8745718],[37.4554385,55.8743785],[37.4553196,55.8742961],[37.4550821,55.8741728],[37.4548789,55.8740857],[37.4542775,55.8738279],[37.45412,55.8737604],[37.4539413,55.8736879],[37.4533031,55.8738069],[37.4529655,55.8733571],[37.4531997,55.8732183],[37.4533287,55.8731425],[37.4533233,55.8730477],[37.4532483,55.8730151],[37.4531597,55.8729905],[37.4531516,55.8729002],[37.453039,55.87284],[37.4529639,55.8728235],[37.4528727,55.8727618],[37.4527225,55.8725872],[37.4525857,55.8725406],[37.4523631,55.8725451],[37.4522558,55.8725767],[37.452119,55.8725285],[37.4519078,55.8724631],[37.4516289,55.8724089],[37.4514572,55.8723186],[37.4510663,55.8721444],[37.4510871,55.872069],[37.451023,55.8719778],[37.4504166,55.8718488],[37.4500577,55.8718077],[37.45008527174377,55.870858088080425],[37.44894,55.87136],[37.44762,55.87198],[37.44494,55.87342],[37.44262,55.87441],[37.44013,55.87585],[37.43872,55.87653],[37.43798,55.87722],[37.43784,55.87815],[37.43778,55.87856],[37.43648,55.87958],[37.43749,55.87989]]],[[[37.45988,55.8832],[37.46283,55.88322],[37.46472,55.88346],[37.46249,55.88272],[37.46253,55.88186],[37.46342,55.88118],[37.46424,55.8809],[37.46484,55.88062],[37.46538,55.88037],[37.46588,55.88007],[37.46597,55.88001],[37.46657,55.87949],[37.46716,55.87887],[37.46942,55.87657],[37.46932,55.87651],[37.46923,55.87643],[37.46918,55.87636],[37.46916,55.87627],[37.46921,55.87617],[37.46939,55.87599],[37.46969,55.87572],[37.46985,55.87558],[37.47319,55.87242],[37.47394,55.87169],[37.47413,55.87152],[37.47668,55.86907],[37.47776,55.86804],[37.479,55.86684],[37.47905,55.8668],[37.47913,55.86673],[37.47877,55.86669],[37.47851,55.86666],[37.47823,55.86661],[37.47796,55.86655],[37.47761,55.86647],[37.47737,55.8664],[37.47713,55.86633],[37.47662,55.86613],[37.47647,55.86606],[37.4766,55.86593],[37.47715,55.86539],[37.47729,55.86526],[37.47739,55.86517],[37.47818,55.86444],[37.47839,55.86424],[37.47934,55.86332],[37.47952,55.86316],[37.47959,55.8631],[37.47976,55.86294],[37.47986,55.86286],[37.48114,55.86176],[37.48133,55.86159],[37.4817,55.86127],[37.48232,55.86077],[37.48524,55.8584],[37.48545,55.85822],[37.48574,55.85829],[37.48685,55.85857],[37.48744,55.85872],[37.488,55.85886],[37.48832,55.85894],[37.48868,55.85902],[37.48895,55.85909],[37.48914,55.85914],[37.48934,55.85895],[37.48975,55.85862],[37.49138,55.85723],[37.49142,55.8572],[37.49205,55.85665],[37.49317,55.85566],[37.4935,55.85538],[37.49356,55.85534],[37.49461,55.85444],[37.49562,55.85358],[37.49672,55.85266],[37.49685,55.85254],[37.49654,55.85245],[37.49476,55.85178],[37.49392,55.85148],[37.49385,55.85145],[37.49266,55.85101],[37.49125,55.85069],[37.49118,55.85068],[37.49106,55.85066],[37.49097,55.85065],[37.48956,55.85049],[37.48893,55.85044],[37.48887,55.85044],[37.4871,55.85034],[37.48702,55.85034],[37.48685,55.85033],[37.48673,55.85032],[37.48602,55.85029],[37.485,55.85025],[37.48487,55.85026],[37.48361,55.85034],[37.4823,55.85042],[37.47943,55.85045],[37.47919,55.85045],[37.47808,55.85039],[37.478,55.85038],[37.47644,55.8502],[37.47545,55.85005],[37.47523,55.85002],[37.4745,55.84986],[37.47422,55.84981],[37.47386,55.84975],[37.46811403052785,55.84830690812644],[37.4679333,55.8485818],[37.4677214,55.8489289],[37.4675618,55.8491792],[37.4674374,55.8491593],[37.4672403,55.8494673],[37.4671839,55.8495591],[37.466728,55.8502822],[37.4666713,55.8503735],[37.4665546,55.8505573],[37.465959,55.851498],[37.4659022,55.851587],[37.4654424,55.8523133],[37.4653814,55.8524091],[37.4648085,55.8533141],[37.4641379,55.8544236],[37.4640156,55.8546206],[37.4634432,55.8555024],[37.4609381,55.8594811],[37.4597122,55.8615237],[37.4589361,55.8628167],[37.4571206,55.865605],[37.4560776,55.8673898],[37.4560702,55.8674643],[37.4559082,55.8692066],[37.4558419,55.8699213],[37.4559508,55.869927],[37.4558827,55.8702016],[37.4558743,55.8703171],[37.455876,55.8704097],[37.4558826,55.8704826],[37.4558918,55.8705436],[37.4559245,55.8705433],[37.4559251,55.8705657],[37.4559899,55.8708776],[37.456385,55.8716602],[37.4562505,55.8717887],[37.4563402,55.8719815],[37.4565545,55.8720685],[37.4567304,55.872103],[37.457007,55.8722449],[37.457065,55.872269],[37.4574413,55.8724255],[37.457681,55.8724872],[37.4577443,55.8725045],[37.4580944,55.8724817],[37.4584585,55.8723669],[37.4587603,55.8721416],[37.4589256,55.8720411],[37.45913,55.8719812],[37.4592146,55.871975],[37.4592884,55.8719973],[37.4594033,55.8721287],[37.4594972,55.8722347],[37.459567,55.8723492],[37.4595252,55.8725296],[37.4592258,55.8729007],[37.4589167,55.8731882],[37.4588231,55.8733437],[37.4585947,55.8735432],[37.458417,55.8738212],[37.4585746,55.8741593],[37.4589357,55.8749338],[37.4593157,55.8755697],[37.4595058,55.8758119],[37.4597261,55.8759574],[37.4601919,55.876085],[37.4608965,55.8761113],[37.4609041,55.8761307],[37.4609663,55.8761211],[37.4609575,55.8761004],[37.4610883,55.8759932],[37.4611647,55.875939],[37.4613954,55.8758119],[37.4614263,55.8757705],[37.4614136,55.8757144],[37.4614276,55.8756855],[37.4614823,55.8756499],[37.461769,55.8756385],[37.4618458,55.8756647],[37.4619436,55.8757672],[37.4622074,55.8758336],[37.4623671,55.875855],[37.4626534,55.8759714],[37.4628387,55.8760445],[37.4629385,55.876086],[37.4629658,55.8760974],[37.4630316,55.8761738],[37.4630959,55.876237],[37.46323,55.8763604],[37.4634124,55.8765605],[37.4635237,55.8766357],[37.4637048,55.8766921],[37.4639422,55.8767117],[37.4640883,55.876732],[37.4641903,55.8767734],[37.4642399,55.8768524],[37.4642734,55.8769547],[37.464252,55.8770352],[37.4641836,55.8771179],[37.4641809,55.8771744],[37.4642292,55.8772526],[37.4642573,55.8773301],[37.4643365,55.8773737],[37.4645537,55.8774309],[37.4647214,55.8775114],[37.4648823,55.8775934],[37.4651062,55.8776686],[37.4652256,55.8776859],[37.465408,55.8776972],[37.4658573,55.8777672],[37.4658,55.8783981],[37.465133,55.8786281],[37.4653104,55.8788308],[37.4655377,55.8789332],[37.4656134,55.8790008],[37.4655686,55.8791205],[37.4656582,55.879192],[37.4658269,55.8792867],[37.4660689,55.8793336],[37.4659544,55.8794045],[37.465975,55.8794856],[37.4658465,55.8795749],[37.4657875,55.8795945],[37.465691,55.879602],[37.465522,55.879587],[37.4653369,55.8794862],[37.4651143,55.8793583],[37.464948,55.8792304],[37.4648192,55.8791612],[37.4645296,55.8790213],[37.464315,55.8788663],[37.4639797,55.8785398],[37.4637492,55.8784027],[37.463446,55.8782223],[37.4620526,55.877531],[37.4621116,55.8774903],[37.4618165,55.8773436],[37.4617924,55.8773602],[37.4617119,55.8773015],[37.4614584,55.8771744],[37.461323,55.8771337],[37.461201,55.8771074],[37.4610793,55.8771027],[37.4608754,55.8771192],[37.4608,55.8771253],[37.4605974,55.8771667],[37.4605682,55.8771791],[37.4602796,55.8772534],[37.4601603,55.8773098],[37.4600556,55.8773722],[37.4599524,55.8774881],[37.4598625,55.8775987],[37.4597995,55.8777085],[37.4597861,55.8778379],[37.4598183,55.8779733],[37.4599014,55.8782073],[37.4599564,55.8783457],[37.4599658,55.878442],[37.4599457,55.8785172],[37.459884,55.8786256],[37.4596805,55.8788524],[37.4595997,55.8789844],[37.4595313,55.8791687],[37.4595246,55.8793056],[37.459546,55.879608],[37.459664,55.8802881],[37.4596989,55.8806898],[37.4596175,55.8813453],[37.4596828,55.881442],[37.4596855,55.8815609],[37.4596158,55.8816632],[37.4595203,55.8817139],[37.4592542,55.8822003],[37.4591401,55.8824677],[37.4591096,55.8828647],[37.45912,55.8830531],[37.45912872611111,55.8832],[37.45988,55.8832]]]]}},{"type":"Feature","properties":{"district":"Молжаниновский","name":"Молжаниновский","OKATO":"45277584","OKTMO":"45343000","yards_count":8},"geometry":{"type":"Polygon","coordinates":[[[37.33132,55.93387],[37.33496,55.93538],[37.33554,55.93519],[37.3363,55.93478],[37.33678,55.93499],[37.33649,55.93544],[37.33582,55.93574],[37.33738,55.93641],[37.33821,55.93638],[37.33828,55.93669],[37.33867,55.93706],[37.34282,55.93885],[37.34327,55.93896],[37.34955,55.93663],[37.35088,55.93745],[37.35145,55.93722],[37.35214,55.93774],[37.35282,55.9381],[37.35273,55.93815],[37.3534,55.93861],[37.35349,55.93857],[37.3541,55.93891],[37.35225,55.93965],[37.35039,55.94048],[37.35101,55.94079],[37.3478,55.94272],[37.34745,55.94294],[37.34791,55.94323],[37.3417,55.94675],[37.34053,55.94627],[37.33857,55.94801],[37.33816,55.94856],[37.33852,55.94886],[37.33795,55.94934],[37.33746,55.94985],[37.3364,55.95071],[37.33503,55.95359],[37.33947,55.95483],[37.3418,55.95598],[37.34102,55.95656],[37.34157,55.95683],[37.34226,55.95657],[37.34299,55.95643],[37.34457,55.95641],[37.34658,55.95655],[37.34727,55.95665],[37.34793,55.95677],[37.34886,55.95701],[37.34958,55.95729],[37.35019,55.95692],[37.34733,55.95533],[37.34687,55.95501],[37.34654,55.95469],[37.34637,55.95432],[37.34633,55.9538],[37.34643,55.95362],[37.34695,55.9531],[37.34882,55.95189],[37.35039,55.95248],[37.35213,55.95149],[37.35222,55.95152],[37.35297,55.95126],[37.35349,55.95113],[37.35486,55.95168],[37.35593,55.9535],[37.35797,55.95314],[37.35818,55.95348],[37.35822,55.95364],[37.35816,55.95368],[37.35822,55.95371],[37.35811,55.95391],[37.35787,55.95402],[37.35793,55.95408],[37.3578,55.95408],[37.35786,55.95412],[37.35778,55.95425],[37.35781,55.95436],[37.35771,55.95448],[37.35796,55.95454],[37.3584,55.95455],[37.3583,55.95462],[37.35795,55.95466],[37.35792,55.95473],[37.35826,55.95472],[37.35865,55.95479],[37.35869,55.95475],[37.35861,55.95472],[37.35921,55.95478],[37.35827,55.95528],[37.35945,55.95597],[37.37197,55.95614],[37.3762,55.95547],[37.37615,55.95527],[37.37589,55.95493],[37.37517,55.95445],[37.37505,55.95427],[37.37509,55.95383],[37.37535,55.95354],[37.37648,55.95289],[37.37787,55.9522],[37.37924,55.95179],[37.38076,55.95108],[37.38148,55.95087],[37.38198,55.95084],[37.38251,55.95091],[37.38312,55.9511],[37.38352,55.95135],[37.38363,55.95157],[37.38286,55.95232],[37.38278,55.95248],[37.3828,55.95263],[37.38308,55.95287],[37.38364,55.95304],[37.38429,55.95317],[37.38487,55.95319],[37.38517,55.95316],[37.38583,55.9529],[37.38603,55.95287],[37.38722,55.95328],[37.38753,55.95333],[37.38861,55.9532],[37.38903,55.9531],[37.38943,55.95288],[37.38944,55.95275],[37.38924,55.95256],[37.38928,55.95239],[37.39001,55.95201],[37.39031,55.952],[37.39178,55.95228],[37.3925,55.95229],[37.39275,55.95226],[37.39301,55.95201],[37.39301,55.95144],[37.39267,55.95117],[37.39208,55.9509],[37.3919,55.95077],[37.39169,55.95046],[37.39161,55.94997],[37.39179,55.94974],[37.39179,55.94939],[37.39199,55.94918],[37.3926,55.94883],[37.39315,55.94869],[37.39351,55.9487],[37.39403,55.94865],[37.39424,55.94867],[37.39472,55.94879],[37.39507,55.94895],[37.39533,55.94898],[37.39601,55.9492],[37.39629,55.94936],[37.39778,55.94971],[37.39854,55.94975],[37.3994,55.95001],[37.39998,55.95],[37.40068,55.95011],[37.40105,55.95031],[37.40137,55.95034],[37.40164,55.9503],[37.4018,55.95032],[37.40377,55.95082],[37.40452,55.95082],[37.40497,55.95093],[37.40543,55.95096],[37.40601,55.95116],[37.40644,55.95143],[37.40656,55.95145],[37.40708,55.95131],[37.40742,55.95136],[37.40788,55.95168],[37.40812,55.95236],[37.40863,55.95264],[37.40869,55.95274],[37.40856,55.95292],[37.4083,55.953],[37.40815,55.95299],[37.40788,55.95286],[37.40772,55.95287],[37.40749,55.95301],[37.40746,55.95322],[37.4078,55.95339],[37.40798,55.95371],[37.40821,55.9539],[37.40897,55.95401],[37.40962,55.95417],[37.41,55.95417],[37.41044,55.954],[37.4107,55.95371],[37.41068,55.95342],[37.41078,55.95323],[37.4111,55.95315],[37.41146,55.95319],[37.41194,55.95334],[37.41206,55.9535],[37.41197,55.9538],[37.41214,55.95388],[37.41273,55.95388],[37.41302,55.95361],[37.41322,55.95358],[37.4133,55.95363],[37.41337,55.95375],[37.41309,55.95396],[37.41307,55.95416],[37.4139,55.95453],[37.41459,55.95456],[37.41514,55.95444],[37.41593,55.95439],[37.41622,55.95432],[37.41671,55.95395],[37.41676,55.95374],[37.41667,55.95347],[37.41688,55.95333],[37.41752,55.95334],[37.41799,55.95324],[37.41916,55.95328],[37.41948,55.95322],[37.41968,55.95312],[37.42032,55.95246],[37.41971,55.95178],[37.41978,55.95159],[37.42017,55.95153],[37.42101,55.95158],[37.42157,55.95151],[37.42213,55.95135],[37.42237,55.95133],[37.42178,55.95024],[37.42071,55.94972],[37.42114,55.94748],[37.42089,55.9472],[37.4193,55.9467],[37.4168,55.94674],[37.41619,55.94654],[37.41556,55.94576],[37.41037,55.94526],[37.40858,55.94277],[37.4082,55.94147],[37.40842,55.94113],[37.40813,55.94094],[37.40821,55.94069],[37.40745,55.93985],[37.40772,55.93929],[37.40666,55.93903],[37.40711,55.93671],[37.40769,55.93499],[37.40762,55.93481],[37.40767,55.93469],[37.40947,55.93302],[37.41017,55.93191],[37.40986,55.93141],[37.41019,55.93069],[37.41016,55.93044],[37.40943,55.92964],[37.40775,55.92903],[37.40782,55.92881],[37.40855,55.92853],[37.41027,55.92721],[37.41062,55.92525],[37.40841,55.92413],[37.39685,55.92617],[37.39433,55.92266],[37.39378,55.92156],[37.39385,55.92114],[37.39494,55.91933],[37.39871,55.91662],[37.39578,55.9155],[37.39527,55.91523],[37.39467,55.9147],[37.39426,55.91449],[37.39002,55.91284],[37.38934,55.91259],[37.38733,55.91183],[37.38705,55.91173],[37.38672,55.91166],[37.38611,55.91161],[37.38499,55.91151],[37.384,55.91143],[37.38368,55.9114],[37.38301,55.91136],[37.38232,55.91135],[37.38106,55.9114],[37.37923,55.91149],[37.37835,55.91149],[37.37771,55.91142],[37.3768,55.91124],[37.37296,55.90964],[37.36986,55.9082],[37.36862,55.90991],[37.36814,55.91023],[37.36575,55.9141],[37.36603,55.91538],[37.36967,55.91751],[37.36885,55.91796],[37.37174,55.91964],[37.37697,55.9207],[37.37782,55.92111],[37.37564,55.92171],[37.37168,55.92339],[37.36103,55.92806],[37.35646,55.92995],[37.35172,55.9277],[37.3497,55.92678],[37.34929,55.92639],[37.34922,55.92604],[37.34371,55.92418],[37.34359,55.92542],[37.34361,55.92611],[37.34353,55.92664],[37.34326,55.92709],[37.34141,55.92891],[37.34061,55.92996],[37.33983,55.93073],[37.33792,55.93202],[37.33669,55.93266],[37.33577,55.93296],[37.33345,55.93359],[37.33132,55.93387]]]}},{"type":"Feature","properties":{"district":"Савеловский","name":"Савеловский","OKATO":"45277586","OKTMO":"45344000","yards_count":165},"geometry":{"type":"Polygon","coordinates":[[[37.54846,55.80664],[37.54936,55.80704],[37.54946,55.80708],[37.54983,55.80688],[37.55071,55.80642],[37.55109,55.80625],[37.55137,55.80614],[37.55177,55.806],[37.55227,55.80583],[37.55289,55.80564],[37.5534,55.80551],[37.55384,55.8054],[37.55447,55.80526],[37.55509,55.80514],[37.55585,55.80502],[37.55728,55.80488],[37.55838,55.80487],[37.55943,55.80494],[37.56006,55.80501],[37.5609,55.80513],[37.56597,55.80589],[37.57199,55.80684],[37.57586,55.80752],[37.5783,55.80791],[37.58065,55.80829],[37.5812,55.80737],[37.58178,55.80643],[37.58234,55.80552],[37.58284,55.80372],[37.58319,55.80238],[37.58351,55.80102],[37.58372,55.79993],[37.58397,55.79849],[37.58411,55.79721],[37.5842,55.79626],[37.58419,55.79585],[37.58423,55.79544],[37.58426,55.79526],[37.58433,55.79502],[37.58437,55.79494],[37.58441,55.79484],[37.58447,55.79475],[37.58454,55.79466],[37.58461,55.79458],[37.58468,55.79451],[37.58476,55.79444],[37.58495,55.79431],[37.58568,55.7939],[37.58647,55.79338],[37.58534,55.79281],[37.58393,55.79216],[37.58317,55.79213],[37.57454,55.79166],[37.57253,55.79157],[37.56992,55.79144],[37.56959,55.79143],[37.56919,55.79159],[37.56868,55.79183],[37.56753,55.79224],[37.56702,55.79242],[37.56686,55.79249],[37.56572,55.79291],[37.56504,55.79317],[37.56484,55.79324],[37.56381,55.79361],[37.56363,55.79372],[37.56333,55.7939],[37.56243,55.79463],[37.56108,55.79574],[37.56097,55.79582],[37.56003,55.79669],[37.55944,55.79723],[37.55917,55.79748],[37.55876,55.79787],[37.55862,55.798],[37.55859,55.79804],[37.55824,55.79836],[37.55799,55.79858],[37.55733,55.79919],[37.55725,55.79927],[37.5572,55.79933],[37.55694,55.79967],[37.55679,55.79983],[37.55673,55.79991],[37.5558,55.80073],[37.55535,55.80112],[37.55513,55.8013],[37.55512,55.80131],[37.55465,55.8017],[37.55388,55.80232],[37.55379,55.80239],[37.5537,55.80246],[37.55108,55.80462],[37.55091,55.80475],[37.54964,55.80574],[37.54944,55.8059],[37.54846,55.80664]]]}},{"type":"Feature","properties":{"district":"Сокол","name":"Сокол","OKATO":"45277589","OKTMO":"45345000","yards_count":89},"geometry":{"type":"Polygon","coordinates":[[[37.48684,55.81535],[37.48732,55.81532],[37.48814,55.8153],[37.4935,55.81519],[37.49552,55.8151],[37.49818,55.81501],[37.50025,55.81496],[37.5029,55.81489],[37.50808,55.81475],[37.50978,55.81477],[37.51163,55.81485],[37.51369,55.81494],[37.51654,55.81506],[37.5195,55.81517],[37.51685,55.81192],[37.51631,55.81173],[37.51594,55.81136],[37.51513,55.81053],[37.51466,55.81023],[37.51279,55.80803],[37.51137,55.80647],[37.51101,55.80608],[37.51361,55.80545],[37.51601,55.80485],[37.52044,55.80374],[37.52019,55.80322],[37.52017,55.80316],[37.52014,55.80311],[37.52014,55.80304],[37.52018,55.80274],[37.52018,55.80267],[37.52017,55.80259],[37.51987,55.80153],[37.51962,55.80068],[37.51952,55.80035],[37.51932,55.7997],[37.51926,55.79948],[37.51903,55.79864],[37.51901,55.79858],[37.51893,55.79827],[37.51882,55.79784],[37.51873,55.7975],[37.51861,55.79701],[37.51854,55.79671],[37.51824,55.79567],[37.51824,55.79563],[37.51824,55.79553],[37.51822,55.79527],[37.51796,55.79473],[37.51855,55.7946],[37.51888,55.79449],[37.51891,55.79435],[37.51879,55.7942],[37.51839,55.79369],[37.51832,55.79358],[37.51835,55.79349],[37.51796,55.79344],[37.50958,55.79197],[37.50389,55.79112],[37.50325,55.79386],[37.50258,55.79498],[37.5006,55.79735],[37.49956,55.79859],[37.49848,55.79982],[37.49614,55.80247],[37.49317,55.80596],[37.49099,55.8085],[37.48941,55.81031],[37.48858,55.81127],[37.4879,55.8121],[37.48766,55.81244],[37.48736,55.81299],[37.48722,55.81328],[37.4871,55.81367],[37.48703,55.81395],[37.48687,55.81501],[37.48684,55.81535]]]}},{"type":"Feature","properties":{"district":"Тимирязевский","name":"Тимирязевский","OKATO":"45277592","OKTMO":"45346000","yards_count":142},"geometry":{"type":"Polygon","coordinates":[[[37.53178,55.83139],[37.53364,55.83351],[37.5342,55.83396],[37.53737,55.83579],[37.54061,55.83733],[37.54236,55.83801],[37.54931,55.84055],[37.55877,55.8441],[37.56054,55.84484],[37.55518,55.84836],[37.55551,55.84847],[37.55568,55.84853],[37.55599,55.84863],[37.55629,55.84873],[37.55662,55.84883],[37.55692,55.84892],[37.55728,55.84902],[37.55764,55.84911],[37.55794,55.84918],[37.55822,55.84924],[37.55851,55.8493],[37.5588,55.84935],[37.55913,55.84941],[37.55944,55.84945],[37.5598,55.8495],[37.56018,55.84954],[37.56059,55.84958],[37.561,55.84962],[37.5613,55.84964],[37.56161,55.84966],[37.562,55.84968],[37.56238,55.84969],[37.56276,55.8497],[37.56314,55.8497],[37.56367,55.8497],[37.564,55.8497],[37.56432,55.8497],[37.56468,55.84969],[37.56507,55.84966],[37.56549,55.84963],[37.5659,55.8496],[37.56626,55.84956],[37.56692,55.8495],[37.56751,55.84944],[37.56832,55.84936],[37.56878,55.8493],[37.56923,55.84924],[37.56978,55.84916],[37.5704,55.84906],[37.57134,55.84889],[37.57231,55.84873],[37.5732,55.84857],[37.57358,55.84851],[37.57377,55.84848],[37.5739,55.8481],[37.57444,55.84657],[37.57495,55.84509],[37.5754,55.84393],[37.57562,55.84358],[37.57602,55.84309],[37.57766,55.84143],[37.57797,55.84102],[37.57822,55.84062],[37.57849,55.84004],[37.57867,55.83944],[37.57872,55.83903],[37.57874,55.83861],[37.57864,55.83791],[37.57855,55.83759],[37.57837,55.83714],[37.57815,55.83679],[37.57782,55.8363],[37.57745,55.83589],[37.57682,55.83535],[37.57629,55.83495],[37.57611,55.8348],[37.57597,55.8347],[37.57508,55.83398],[37.57444,55.8333],[37.57415,55.83286],[37.57389,55.83239],[37.57376,55.83209],[37.57365,55.83172],[37.57357,55.83132],[37.57358,55.83058],[37.57395,55.8228],[37.57402,55.82239],[37.57414,55.82196],[37.57431,55.82153],[37.57455,55.82112],[37.57569,55.81959],[37.57754,55.81712],[37.57782,55.81664],[37.57806,55.81605],[37.57868,55.81314],[37.57883,55.81262],[37.57904,55.81219],[37.57914,55.81202],[37.57931,55.81181],[37.57961,55.81148],[37.58043,55.81085],[37.58105,55.81051],[37.58364,55.80931],[37.5844,55.80889],[37.58473,55.80868],[37.58434,55.80869],[37.58314,55.80862],[37.58065,55.80829],[37.5783,55.80791],[37.57586,55.80752],[37.57199,55.80684],[37.56597,55.80589],[37.5609,55.80513],[37.56006,55.80501],[37.55943,55.80494],[37.55838,55.80487],[37.55728,55.80488],[37.55585,55.80502],[37.55509,55.80514],[37.55447,55.80526],[37.55384,55.8054],[37.5534,55.80551],[37.55289,55.80564],[37.55227,55.80583],[37.55177,55.806],[37.55137,55.80614],[37.55109,55.80625],[37.55071,55.80642],[37.54983,55.80688],[37.54946,55.80708],[37.54413,55.81002],[37.54129,55.81161],[37.54078,55.8119],[37.54109,55.81207],[37.541,55.81221],[37.53988,55.81414],[37.53939,55.81496],[37.53905,55.81548],[37.53849,55.81631],[37.53849,55.81637],[37.53842,55.81642],[37.53789,55.81711],[37.53747,55.81751],[37.53616,55.81864],[37.53613,55.81868],[37.53551,55.81945],[37.53534,55.81964],[37.53524,55.81974],[37.53388,55.82069],[37.53252,55.82139],[37.53214,55.82168],[37.53195,55.82182],[37.53191,55.82228],[37.53194,55.82261],[37.532,55.82287],[37.53216,55.82346],[37.53234,55.82368],[37.53268,55.82464],[37.53268,55.82484],[37.53271,55.82496],[37.53283,55.82547],[37.5328,55.82569],[37.5328,55.82578],[37.53269,55.82699],[37.5326,55.82817],[37.53245,55.82953],[37.53245,55.82962],[37.53206,55.83068],[37.53204,55.83111],[37.53203,55.83133],[37.53178,55.83139]]]}},{"type":"Feature","properties":{"district":"Ховрино","name":"Ховрино","OKATO":"45277595","OKTMO":"45347000","yards_count":224},"geometry":{"type":"Polygon","coordinates":[[[37.46249,55.88272],[37.46472,55.88346],[37.46732,55.88379],[37.47131,55.8847],[37.4737,55.8853],[37.47453,55.88488],[37.51257,55.86846],[37.51437,55.86761],[37.51317,55.86655],[37.51017,55.86437],[37.50913,55.86408],[37.5082,55.86374],[37.50696,55.86308],[37.50587,55.86257],[37.50542,55.86239],[37.50546,55.86234],[37.5055,55.8623],[37.50552,55.86225],[37.5055,55.86218],[37.50548,55.86212],[37.50541,55.86205],[37.50531,55.86201],[37.50812,55.85998],[37.50939,55.85905],[37.50999,55.85861],[37.51098,55.8579],[37.51119,55.85774],[37.5104,55.85744],[37.50812,55.85662],[37.50775,55.85649],[37.50413,55.85518],[37.50318,55.85483],[37.50218,55.85447],[37.5,55.85368],[37.49976,55.8536],[37.4995,55.8535],[37.49856,55.85316],[37.49824,55.85305],[37.49685,55.85254],[37.49672,55.85266],[37.49562,55.85358],[37.49461,55.85444],[37.49356,55.85534],[37.4935,55.85538],[37.49317,55.85566],[37.49205,55.85665],[37.49142,55.8572],[37.49138,55.85723],[37.48975,55.85862],[37.48934,55.85895],[37.48914,55.85914],[37.48895,55.85909],[37.48868,55.85902],[37.48832,55.85894],[37.488,55.85886],[37.48744,55.85872],[37.48685,55.85857],[37.48574,55.85829],[37.48545,55.85822],[37.48524,55.8584],[37.48232,55.86077],[37.4817,55.86127],[37.48133,55.86159],[37.48114,55.86176],[37.47986,55.86286],[37.47976,55.86294],[37.47959,55.8631],[37.47952,55.86316],[37.47934,55.86332],[37.47839,55.86424],[37.47818,55.86444],[37.47739,55.86517],[37.47729,55.86526],[37.47715,55.86539],[37.4766,55.86593],[37.47647,55.86606],[37.47662,55.86613],[37.47713,55.86633],[37.47737,55.8664],[37.47761,55.86647],[37.47796,55.86655],[37.47823,55.86661],[37.47851,55.86666],[37.47877,55.86669],[37.47913,55.86673],[37.47905,55.8668],[37.479,55.86684],[37.47776,55.86804],[37.47668,55.86907],[37.47413,55.87152],[37.47394,55.87169],[37.47319,55.87242],[37.46985,55.87558],[37.46969,55.87572],[37.46939,55.87599],[37.46921,55.87617],[37.46916,55.87627],[37.46918,55.87636],[37.46923,55.87643],[37.46932,55.87651],[37.46942,55.87657],[37.46716,55.87887],[37.46657,55.87949],[37.46597,55.88001],[37.46588,55.88007],[37.46538,55.88037],[37.46484,55.88062],[37.46424,55.8809],[37.46342,55.88118],[37.46253,55.88186],[37.46249,55.88272]]]}},{"type":"Feature","properties":{"district":"Хорошевский","name":"Хорошевский","OKATO":"45277598","OKTMO":"45348000","yards_count":131},"geometry":{"type":"Polygon","coordinates":[[[37.50389,55.79112],[37.50958,55.79197],[37.51796,55.79344],[37.51835,55.79349],[37.51832,55.79358],[37.51839,55.79369],[37.51879,55.7942],[37.51891,55.79435],[37.51888,55.79449],[37.51855,55.7946],[37.51796,55.79473],[37.51822,55.79527],[37.51824,55.79553],[37.51824,55.79563],[37.51824,55.79567],[37.51854,55.79671],[37.51861,55.79701],[37.51873,55.7975],[37.51882,55.79784],[37.51893,55.79827],[37.51901,55.79858],[37.51903,55.79864],[37.51926,55.79948],[37.51932,55.7997],[37.51952,55.80035],[37.51962,55.80068],[37.51987,55.80153],[37.52017,55.80259],[37.52018,55.80267],[37.52018,55.80274],[37.52014,55.80304],[37.52014,55.80311],[37.52017,55.80316],[37.52019,55.80322],[37.52044,55.80374],[37.52201,55.80331],[37.53119,55.80071],[37.55117,55.79191],[37.55068,55.79161],[37.54574,55.78813],[37.54272,55.78592],[37.54188,55.78541],[37.54084,55.78496],[37.5415,55.78428],[37.54199,55.78346],[37.54328,55.78372],[37.54409,55.78358],[37.54428,55.78328],[37.54487,55.78195],[37.54511,55.78141],[37.5453,55.78103],[37.54537,55.78091],[37.5455,55.7808],[37.54564,55.78072],[37.54573,55.78066],[37.54588,55.78056],[37.54723,55.7797],[37.55053,55.77763],[37.55064,55.77756],[37.55075,55.77749],[37.55111,55.77729],[37.55123,55.77724],[37.55154,55.77712],[37.55212,55.77696],[37.55308,55.77668],[37.55397,55.77643],[37.55503,55.77612],[37.55471,55.77576],[37.55463,55.77567],[37.55454,55.77557],[37.55434,55.77538],[37.55426,55.77529],[37.55415,55.7752],[37.55395,55.77503],[37.55381,55.77494],[37.55359,55.7748],[37.55342,55.77471],[37.55323,55.77462],[37.55311,55.77456],[37.55296,55.7745],[37.55284,55.77445],[37.5527,55.7744],[37.5525,55.77433],[37.55228,55.77427],[37.55212,55.77422],[37.5519,55.77418],[37.55169,55.77413],[37.55192,55.77341],[37.54808,55.77311],[37.54634,55.77315],[37.54443,55.77299],[37.5434,55.77279],[37.54186,55.77241],[37.54057,55.77195],[37.53896,55.77113],[37.53792,55.77037],[37.53728,55.76971],[37.53663,55.76907],[37.53624,55.76738],[37.53606,55.7661],[37.53473,55.7662],[37.53466,55.766],[37.53462,55.7659],[37.53429,55.76539],[37.53415,55.7651],[37.53386,55.76488],[37.53358,55.76471],[37.53311,55.76436],[37.53228,55.76348],[37.53212,55.76337],[37.53182,55.76322],[37.52885,55.76198],[37.52834,55.76176],[37.52688,55.76114],[37.52678,55.76108],[37.52642,55.76092],[37.52561,55.76049],[37.52507,55.76011],[37.52439,55.75988],[37.52429,55.75985],[37.52256,55.76169],[37.52194,55.76151],[37.52147,55.76202],[37.52123,55.76227],[37.52083,55.76271],[37.52052,55.76304],[37.52014,55.76344],[37.51985,55.76374],[37.51957,55.76402],[37.51874,55.7649],[37.51792,55.76577],[37.5171,55.76662],[37.51633,55.76743],[37.51596,55.76781],[37.51556,55.76823],[37.51524,55.76857],[37.51507,55.76874],[37.51493,55.7689],[37.51479,55.76904],[37.51467,55.76918],[37.51431,55.76956],[37.51401,55.76987],[37.51385,55.77004],[37.51368,55.77022],[37.51334,55.77056],[37.51317,55.77074],[37.5128,55.77112],[37.51252,55.77142],[37.51212,55.77184],[37.51189,55.77209],[37.51171,55.77228],[37.51128,55.77276],[37.51099,55.77307],[37.51055,55.77352],[37.51025,55.77383],[37.51004,55.77404],[37.50969,55.7744],[37.50943,55.77466],[37.5092,55.77488],[37.50864,55.77545],[37.50808,55.77606],[37.50774,55.77643],[37.50744,55.77682],[37.50705,55.77743],[37.50698,55.77757],[37.50685,55.77786],[37.50665,55.77841],[37.50629,55.78032],[37.50576,55.78267],[37.50523,55.78485],[37.50489,55.78663],[37.50439,55.78858],[37.50404,55.79045],[37.50389,55.79112]]]}}],"metadata":{"source":"gis-lab.info/data/mos-adm (муниципальные образования); границы: © участники OpenStreetMap, ODbL; ссылка на GIS-Lab обязательна","generated":"2026-08-31","generator":"work/build_districts_boundaries.py","water_masked":true,"water_source":"OpenStreetMap через Nominatim; данные © участники OpenStreetMap, ODbL","water_mask_applied_by":"work/apply_water_mask.py","water_mask_note":"Границы округов из OSM включали акватории; вода вырезана, чтобы граница района не проходила по водохранилищу."}}
