{"type":"FeatureCollection","features":[{"type":"Feature","properties":{"name":"Химкинское водохранилище","kind":"reservoir","osm_type":"relation","osm_id":2279003},"geometry":{"type":"Polygon","coordinates":[[[37.4500577,55.8718077],[37.4501141,55.8698652],[37.4506945,55.8688866],[37.450836,55.8687804],[37.4511115,55.8686954],[37.4513297,55.8687121],[37.451541,55.8688236],[37.4517728,55.8688946],[37.4522601,55.8689777],[37.452663,55.868987],[37.4528973,55.8688834],[37.4530123,55.8687818],[37.4530833,55.8686557],[37.4529924,55.8681672],[37.452434,55.8674654],[37.4524143,55.867177],[37.4525619,55.867011],[37.452637,55.8668906],[37.4524704,55.8667943],[37.4523973,55.8666138],[37.4524163,55.8663759],[37.4526251,55.8661644],[37.4527868,55.8661074],[37.4528052,55.8660489],[37.4527376,55.8659699],[37.4526648,55.8659061],[37.4526577,55.8658316],[37.4526421,55.865786],[37.4526044,55.865756],[37.4525334,55.8657143],[37.4524383,55.8656001],[37.4524092,55.8655651],[37.4524123,55.8648146],[37.4524234,55.8644382],[37.4524312,55.8642293],[37.4524141,55.8640292],[37.4524833,55.8638377],[37.4526444,55.8636753],[37.4531571,55.8632105],[37.4532585,55.8631155],[37.4533359,55.8625959],[37.4531778,55.8618251],[37.4531607,55.8614986],[37.4531615,55.8614547],[37.4531687,55.8614201],[37.4531753,55.8613924],[37.4533449,55.8609128],[37.4535231,55.8607644],[37.4536468,55.860696],[37.4537222,55.8605914],[37.4539265,55.8603606],[37.4542059,55.860212],[37.4542565,55.8601851],[37.454415,55.8601008],[37.4546734,55.859971],[37.4549705,55.8598222],[37.4550945,55.8596836],[37.4551711,55.8595487],[37.4551718,55.8593965],[37.455163,55.8591322],[37.4550809,55.8588923],[37.4551265,55.8586601],[37.4552698,55.8583383],[37.4554192,55.8580109],[37.4556527,55.8574123],[37.4556362,55.8562778],[37.455873,55.8553303],[37.4559626,55.8546153],[37.4559673,55.8545282],[37.4559632,55.8544044],[37.4557349,55.8537579],[37.4560411,55.8527088],[37.4561268,55.8526876],[37.4562852,55.8521933],[37.4562932,55.8521707],[37.4562988,55.8521371],[37.4562547,55.852132],[37.456295,55.8519916],[37.4562545,55.8519038],[37.4562305,55.851879],[37.4562064,55.851854],[37.4550116,55.8516186],[37.4545798,55.8515308],[37.4535707,55.8512177],[37.4534692,55.851163],[37.4534707,55.8510084],[37.453721,55.850931],[37.4540428,55.8508858],[37.4542266,55.8509055],[37.4551061,55.8509995],[37.4551694,55.8510063],[37.4556543,55.8509693],[37.4557017,55.8508774],[37.4561125,55.8505167],[37.4564494,55.8502406],[37.4572526,55.8497044],[37.4579496,55.8496252],[37.4585313,55.849415],[37.4589932,55.8494221],[37.4591997,55.8487239],[37.4589332,55.848516],[37.4589407,55.8484674],[37.4588534,55.8481253],[37.4587554,55.8478241],[37.4588112,55.8475827],[37.4589156,55.8473667],[37.4590752,55.8471141],[37.4591891,55.8469199],[37.4595939,55.8466648],[37.4597982,55.8465377],[37.4598994,55.8465595],[37.4600757,55.8463907],[37.4599843,55.8463345],[37.4598988,55.8462367],[37.4600104,55.8459886],[37.4600936,55.8459635],[37.4600751,55.8459246],[37.4600797,55.8458303],[37.4603162,55.8456559],[37.462362,55.8449212],[37.4624951,55.8448754],[37.4627269,55.8450882],[37.462803,55.8450815],[37.4628669,55.8450425],[37.462541,55.8445573],[37.4624141,55.8445936],[37.4623634,55.844529],[37.4621269,55.8442279],[37.4618643,55.8438935],[37.4620885,55.8437768],[37.4624152,55.843738],[37.4626893,55.8440478],[37.4631262,55.844252],[37.4634916,55.8442668],[37.4642825,55.8442],[37.464728,55.8441097],[37.4647991,55.8440842],[37.4650271,55.84399],[37.4650915,55.8438273],[37.4653823,55.8437226],[37.4657027,55.8436942],[37.4659538,55.8436434],[37.4661013,55.8435741],[37.4661952,55.8433829],[37.4661818,55.8432383],[37.4661416,55.8430455],[37.4661791,55.8428934],[37.466253,55.8427795],[37.4662681,55.842763],[37.46628,55.8427499],[37.4663264,55.8426684],[37.4666592,55.8424677],[37.4667477,55.8424195],[37.4667811,55.8424024],[37.4671525,55.842325],[37.4674612,55.8422293],[37.4675659,55.8421781],[37.4676543,55.8420667],[37.4676516,55.8419085],[37.4676067,55.8414015],[37.4676036,55.8413808],[37.4676854,55.8413785],[37.4676719,55.8411438],[37.4675151,55.8411359],[37.4668255,55.8398995],[37.4662462,55.8390274],[37.465538,55.8379961],[37.4657417,55.8379543],[37.4656088,55.8377659],[37.4655471,55.8376786],[37.4652363,55.8372381],[37.4650249,55.8369081],[37.4650049,55.8369077],[37.4649554,55.8368247],[37.4649264,55.8367812],[37.4649411,55.8367785],[37.4645067,55.8360789],[37.4644901,55.8360475],[37.463816,55.8349449],[37.4640417,55.8348981],[37.4642697,55.8348535],[37.4644018,55.8350155],[37.4644288,55.8350485],[37.4646179,55.8352255],[37.464857,55.835352],[37.4650576,55.8353868],[37.4652471,55.8353812],[37.4665048,55.836992],[37.4663249,55.8371089],[37.466298,55.8372243],[37.4665357,55.8375187],[37.4667115,55.8377223],[37.4667596,55.8377666],[37.4669332,55.8378614],[37.4671716,55.8380151],[37.4673944,55.8380106],[37.4676265,55.8379537],[37.4676977,55.8378423],[37.4675668,55.8375516],[37.4673985,55.8372987],[37.4661397,55.8356302],[37.4664551,55.8354149],[37.4668619,55.8353228],[37.4675817,55.8353306],[37.4684101,55.835227],[37.469309,55.8348004],[37.4701482,55.8342329],[37.4707785,55.8342808],[37.471613,55.8342586],[37.4717202,55.8342495],[37.4718133,55.8342199],[37.4719046,55.834166],[37.472589,55.8334885],[37.4735682,55.832636],[37.4742924,55.8319271],[37.4744121,55.8315902],[37.474316,55.8314468],[37.4743231,55.8313114],[37.4744273,55.8312177],[37.4744366,55.83116],[37.4743639,55.8311197],[37.4740323,55.8311033],[37.4739848,55.8310856],[37.4739527,55.8310492],[37.4738306,55.8308853],[37.4738616,55.8307554],[37.475454,55.8292844],[37.4761444,55.8287664],[37.4762632,55.8287464],[37.4769091,55.8286374],[37.477691,55.8285034],[37.4785564,55.8283563],[37.4785516,55.8284676],[37.4787507,55.828475],[37.4787499,55.8288113],[37.4792497,55.8290287],[37.4794964,55.8290107],[37.4798381,55.828967],[37.4804738,55.8287885],[37.4814292,55.8288017],[37.4818389,55.8288702],[37.4824459,55.8290933],[37.4826046,55.8292414],[37.4825267,55.8293773],[37.482502,55.8294717],[37.4826737,55.8295208],[37.4828435,55.8295016],[37.4830646,55.8297549],[37.4837366,55.8307674],[37.4836375,55.8313947],[37.4833556,55.8314325],[37.4830947,55.831776],[37.4830196,55.8318541],[37.4818869,55.8316288],[37.4815383,55.8315595],[37.4814578,55.8316891],[37.4818118,55.8318066],[37.481313,55.8318005],[37.4812389,55.8319165],[37.4819244,55.8320486],[37.4816029,55.8324787],[37.481438,55.832671],[37.4813508,55.8327739],[37.4811146,55.8330756],[37.4811575,55.833094],[37.4811049,55.8331555],[37.4821453,55.833464],[37.4829101,55.8336543],[37.4830664,55.8336911],[37.4825378,55.8342781],[37.4824872,55.8343289],[37.482459,55.8343632],[37.4818857,55.8349505],[37.4817908,55.8349446],[37.4810356,55.834714],[37.4807621,55.8346232],[37.4809016,55.83445],[37.4799179,55.8341888],[37.4788516,55.8353849],[37.4786848,55.8354349],[37.4786711,55.8355568],[37.4786719,55.8357196],[37.4786454,55.8359357],[37.4785764,55.836198],[37.4784517,55.8364185],[37.4783516,55.8365831],[37.4782359,55.8367325],[37.4781684,55.8368141],[37.4781161,55.8368845],[37.4780917,55.8369144],[37.477984,55.8370066],[37.4776429,55.8373918],[37.4775038,55.8375664],[37.4773693,55.8377352],[37.4769831,55.8377111],[37.4767578,55.8376493],[37.4767274,55.8376829],[37.4766117,55.8378109],[37.4765108,55.8379226],[37.4761051,55.8383713],[37.4760504,55.8384318],[37.4761811,55.8384672],[37.4759462,55.8387017],[37.4757499,55.8389055],[37.4756581,55.8390003],[37.4754649,55.8390666],[37.4754327,55.8390997],[37.4754438,55.8391734],[37.4760105,55.8393693],[37.4761309,55.8394414],[37.4766724,55.8394999],[37.4770576,55.8395765],[37.477254,55.8396914],[37.4773583,55.8397719],[37.4774076,55.8398297],[37.4773486,55.8398755],[37.4772536,55.8399381],[37.4768525,55.8399721],[37.4767992,55.8401563],[37.4765205,55.8401747],[37.4764816,55.8403371],[37.4765569,55.8404186],[37.4766156,55.840523],[37.4767685,55.8406118],[37.4767122,55.8407444],[37.476806,55.8408618],[37.4769938,55.8409763],[37.4769321,55.8411028],[37.4770358,55.8413445],[37.4773693,55.8416118],[37.4779245,55.8418679],[37.478028,55.8419665],[37.478192,55.8420433],[37.4779433,55.842029],[37.4778568,55.842151],[37.477654,55.8422103],[37.4771484,55.8422146],[37.4765935,55.8425362],[37.4765713,55.8425859],[37.4765153,55.8427115],[37.4764425,55.8428748],[37.4760152,55.8430763],[37.4757503,55.843092],[37.4755205,55.8431057],[37.4753674,55.84324],[37.4751629,55.8437409],[37.4751536,55.8437491],[37.4750886,55.8436973],[37.4750652,55.8436931],[37.4750384,55.8436694],[37.4749781,55.8436916],[37.4749364,55.8438889],[37.4749171,55.8442502],[37.4751,55.8442926],[37.4750721,55.8443313],[37.4748827,55.8443021],[37.4748178,55.8443988],[37.4746669,55.8446607],[37.4747308,55.8447505],[37.4747367,55.8447614],[37.4747453,55.8447771],[37.4746589,55.8448745],[37.4746589,55.8449739],[37.4746026,55.8451312],[37.474628,55.8451794],[37.4746656,55.8452096],[37.4747313,55.8452329],[37.4747554,55.8452464],[37.4747782,55.8452675],[37.4747782,55.8452961],[37.4747595,55.845318],[37.4746897,55.8453345],[37.4746173,55.8453383],[37.4745529,55.8453255],[37.4745127,55.8452991],[37.4744899,55.8452675],[37.4744363,55.845129],[37.4742196,55.8448677],[37.4742123,55.8448542],[37.4742051,55.8448411],[37.4740728,55.8446983],[37.473873,55.8445357],[37.4746283,55.8440061],[37.4739187,55.8436845],[37.4737497,55.843608],[37.4731525,55.8440094],[37.4722682,55.844078],[37.4718427,55.8440275],[37.4714617,55.8441569],[37.4709816,55.8443113],[37.470543,55.8444536],[37.4703593,55.8447435],[37.4699986,55.8453052],[37.4695251,55.8460596],[37.4692529,55.8464963],[37.4687768,55.8472334],[37.4687553,55.8472688],[37.4685126,55.8476731],[37.4683034,55.8480156],[37.4681285,55.8482849],[37.4679333,55.8485818],[37.4677214,55.8489289],[37.4675618,55.8491792],[37.4674374,55.8491593],[37.4672403,55.8494673],[37.4671839,55.8495591],[37.466728,55.8502822],[37.4666713,55.8503735],[37.4665546,55.8505573],[37.465959,55.851498],[37.4659022,55.851587],[37.4654424,55.8523133],[37.4653814,55.8524091],[37.4648085,55.8533141],[37.4641379,55.8544236],[37.4640156,55.8546206],[37.4634432,55.8555024],[37.4609381,55.8594811],[37.4597122,55.8615237],[37.4589361,55.8628167],[37.4571206,55.865605],[37.4560776,55.8673898],[37.4560702,55.8674643],[37.4559082,55.8692066],[37.4558419,55.8699213],[37.4559508,55.869927],[37.4558827,55.8702016],[37.4558743,55.8703171],[37.455876,55.8704097],[37.4558826,55.8704826],[37.4558918,55.8705436],[37.4559245,55.8705433],[37.4559251,55.8705657],[37.4559899,55.8708776],[37.456385,55.8716602],[37.4562505,55.8717887],[37.4563402,55.8719815],[37.4565545,55.8720685],[37.4567304,55.872103],[37.457007,55.8722449],[37.457065,55.872269],[37.4574413,55.8724255],[37.457681,55.8724872],[37.4577443,55.8725045],[37.4580944,55.8724817],[37.4584585,55.8723669],[37.4587603,55.8721416],[37.4589256,55.8720411],[37.45913,55.8719812],[37.4592146,55.871975],[37.4592884,55.8719973],[37.4594033,55.8721287],[37.4594972,55.8722347],[37.459567,55.8723492],[37.4595252,55.8725296],[37.4592258,55.8729007],[37.4589167,55.8731882],[37.4588231,55.8733437],[37.4585947,55.8735432],[37.458417,55.8738212],[37.4585746,55.8741593],[37.4589357,55.8749338],[37.4593157,55.8755697],[37.4595058,55.8758119],[37.4597261,55.8759574],[37.4601919,55.876085],[37.4608965,55.8761113],[37.4609041,55.8761307],[37.4609663,55.8761211],[37.4609575,55.8761004],[37.4610883,55.8759932],[37.4611647,55.875939],[37.4613954,55.8758119],[37.4614263,55.8757705],[37.4614136,55.8757144],[37.4614276,55.8756855],[37.4614823,55.8756499],[37.461769,55.8756385],[37.4618458,55.8756647],[37.4619436,55.8757672],[37.4622074,55.8758336],[37.4623671,55.875855],[37.4626534,55.8759714],[37.4628387,55.8760445],[37.4629385,55.876086],[37.4629658,55.8760974],[37.4630316,55.8761738],[37.4630959,55.876237],[37.46323,55.8763604],[37.4634124,55.8765605],[37.4635237,55.8766357],[37.4637048,55.8766921],[37.4639422,55.8767117],[37.4640883,55.876732],[37.4641903,55.8767734],[37.4642399,55.8768524],[37.4642734,55.8769547],[37.464252,55.8770352],[37.4641836,55.8771179],[37.4641809,55.8771744],[37.4642292,55.8772526],[37.4642573,55.8773301],[37.4643365,55.8773737],[37.4645537,55.8774309],[37.4647214,55.8775114],[37.4648823,55.8775934],[37.4651062,55.8776686],[37.4652256,55.8776859],[37.465408,55.8776972],[37.4658573,55.8777672],[37.4658,55.8783981],[37.465133,55.8786281],[37.4653104,55.8788308],[37.4655377,55.8789332],[37.4656134,55.8790008],[37.4655686,55.8791205],[37.4656582,55.879192],[37.4658269,55.8792867],[37.4660689,55.8793336],[37.4659544,55.8794045],[37.465975,55.8794856],[37.4658465,55.8795749],[37.4657875,55.8795945],[37.465691,55.879602],[37.465522,55.879587],[37.4653369,55.8794862],[37.4651143,55.8793583],[37.464948,55.8792304],[37.4648192,55.8791612],[37.4645296,55.8790213],[37.464315,55.8788663],[37.4639797,55.8785398],[37.4637492,55.8784027],[37.463446,55.8782223],[37.4620526,55.877531],[37.4621116,55.8774903],[37.4618165,55.8773436],[37.4617924,55.8773602],[37.4617119,55.8773015],[37.4614584,55.8771744],[37.461323,55.8771337],[37.461201,55.8771074],[37.4610793,55.8771027],[37.4608754,55.8771192],[37.4608,55.8771253],[37.4605974,55.8771667],[37.4605682,55.8771791],[37.4602796,55.8772534],[37.4601603,55.8773098],[37.4600556,55.8773722],[37.4599524,55.8774881],[37.4598625,55.8775987],[37.4597995,55.8777085],[37.4597861,55.8778379],[37.4598183,55.8779733],[37.4599014,55.8782073],[37.4599564,55.8783457],[37.4599658,55.878442],[37.4599457,55.8785172],[37.459884,55.8786256],[37.4596805,55.8788524],[37.4595997,55.8789844],[37.4595313,55.8791687],[37.4595246,55.8793056],[37.459546,55.879608],[37.459664,55.8802881],[37.4596989,55.8806898],[37.4596175,55.8813453],[37.4596828,55.881442],[37.4596855,55.8815609],[37.4596158,55.8816632],[37.4595203,55.8817139],[37.4592542,55.8822003],[37.4591401,55.8824677],[37.4591096,55.8828647],[37.45912,55.8830531],[37.4591339,55.8832871],[37.4591532,55.8834463],[37.459227,55.8837161],[37.4594055,55.8838795],[37.4596075,55.883913],[37.4597793,55.8840897],[37.4601582,55.884555],[37.4604773,55.8848429],[37.460625,55.8849761],[37.4607989,55.8852531],[37.4608242,55.8852934],[37.461246,55.8859651],[37.4612194,55.8865799],[37.4611527,55.8868893],[37.461247,55.8870859],[37.4588111,55.887322],[37.4588297,55.8867299],[37.4587844,55.8866638],[37.4586525,55.8864715],[37.4587359,55.8864535],[37.4579647,55.8852053],[37.4575601,55.8849599],[37.4568623,55.8843033],[37.4564199,55.8836218],[37.456411,55.8833586],[37.4564244,55.883017],[37.4564475,55.8824274],[37.4564621,55.8820551],[37.4567478,55.8806904],[37.4564045,55.8801418],[37.45629,55.8799477],[37.4562761,55.8797791],[37.4562996,55.8796366],[37.4563761,55.8795292],[37.4569605,55.8790695],[37.4570211,55.87899],[37.457027,55.8788774],[37.4568666,55.8780857],[37.456832,55.8780047],[37.45646,55.8771327],[37.4562494,55.8767374],[37.4559576,55.8761897],[37.4558735,55.8757101],[37.4557374,55.8750661],[37.4555343,55.8745718],[37.4554385,55.8743785],[37.4553196,55.8742961],[37.4550821,55.8741728],[37.4548789,55.8740857],[37.4542775,55.8738279],[37.45412,55.8737604],[37.4539413,55.8736879],[37.4533031,55.8738069],[37.4529655,55.8733571],[37.4531997,55.8732183],[37.4533287,55.8731425],[37.4533233,55.8730477],[37.4532483,55.8730151],[37.4531597,55.8729905],[37.4531516,55.8729002],[37.453039,55.87284],[37.4529639,55.8728235],[37.4528727,55.8727618],[37.4527225,55.8725872],[37.4525857,55.8725406],[37.4523631,55.8725451],[37.4522558,55.8725767],[37.452119,55.8725285],[37.4519078,55.8724631],[37.4516289,55.8724089],[37.4514572,55.8723186],[37.4510663,55.8721444],[37.4510871,55.872069],[37.451023,55.8719778],[37.4504166,55.8718488],[37.4500577,55.8718077]],[[37.4558029,55.8516142],[37.4558346,55.8516281],[37.4558829,55.8516319],[37.4559821,55.8516371],[37.4561041,55.8516356],[37.4561618,55.8517486],[37.4562864,55.8517459],[37.4562923,55.8516353],[37.4563142,55.8516339],[37.4563487,55.8516318],[37.4565749,55.8516206],[37.4566921,55.8516769],[37.4567564,55.8516758],[37.4566585,55.8515828],[37.4567401,55.8514867],[37.4566644,55.8514872],[37.4565695,55.8515604],[37.4562923,55.8515554],[37.4562731,55.8514527],[37.456139,55.8514527],[37.4561011,55.8515686],[37.4559808,55.8515701],[37.4558788,55.851574],[37.4558346,55.8515829],[37.4558031,55.8515972],[37.4558029,55.8516142]],[[37.4563392,55.8527408],[37.4563427,55.8528338],[37.4563725,55.8528364],[37.4564277,55.8527491],[37.4565582,55.8523894],[37.4566164,55.8521655],[37.4566215,55.8520744],[37.4565798,55.8520704],[37.4565199,55.852155],[37.4565041,55.8521939],[37.4564963,55.8522131],[37.4564304,55.8523751],[37.4563472,55.8527087],[37.4563424,55.8527281],[37.4563392,55.8527408]]]}}],"metadata":{"source":"OpenStreetMap через Nominatim; данные © участники OpenStreetMap, ODbL","purpose":"Акватории, которые вырезаются из границ районов: district boundary не проходит по воде","generated":"2026-09-15","generator":"work/build_water_mask.py"}}
