{"type":"FeatureCollection","features":[{"type":"Feature","properties":{"objectKey":"parking:10002419","bufferMetres":100},"geometry":{"type":"Polygon","coordinates":[[[37.510496602771234,55.92007928383564],[37.51047513061676,55.9200875089573],[37.51035398115733,55.92014451825829],[37.51024344042225,55.9202079620123],[37.510144587341856,55.92027722100852],[37.51005838679044,55.92035161927604],[37.50998568016775,55.92043043068054],[37.509927177184906,55.92051288601066],[37.50988344893492,55.92059818048486],[37.50985492231561,55.920685481605695],[37.50984187585933,55.92077393728461],[37.50984443701054,55.920862684158514],[37.50986258087778,55.9209508560162],[37.50989613047249,55.92103759225304],[37.509944758432425,55.921122046271215],[37.51000799021308,55.92120339374322],[37.5100852087161,55.92128084065843],[37.51017566030953,55.92135363107385],[37.510278462181496,55.92142105449339],[37.5103926109553,55.92148245280381],[37.51051699248222,55.92153722669922],[37.51065039271626,55.9215848415319],[37.51079150956469,55.921624832531705],[37.5109389655989,55.921656809343574],[37.5110913215011,55.921680459838505],[37.5114476280223,55.92172526153306],[37.511601157175505,55.9217402000002],[37.5117565461585,55.921746681885345],[37.511912321144685,55.921744645708856],[37.51206700464541,55.921734110782765],[37.51221912952641,55.92171517702775],[37.51236725292606,55.921688024025045],[37.512509969943196,55.92165290931303],[37.51264592696439,55.92161016594393],[37.51277383450449,55.921560199324446],[37.512803834853734,55.921545858254596],[37.51283422586766,55.921572196596344],[37.51293580412136,55.92164325532748],[37.51304967864612,55.921708171078016],[37.51317467808188,55.92176627606408],[37.51330951660964,55.92181697256079],[37.51345280717874,55.92185973905193],[37.513603075776466,55.921894135595714],[37.51375877659297,55.92191980835138],[37.513797477290176,55.921925008542665],[37.51394967293336,55.921941130823015],[37.51410393171975,55.921948914609665],[37.51425880809847,55.92194828696059],[37.5144128507298,55.92193925375691],[37.514564616088464,55.92192189964779],[37.51471268199357,55.921896387257014],[37.514855660938366,55.92186295565876],[37.51499221309471,55.9218219181369],[37.51512105887034,55.921773659248636],[37.5152409909012,55.92171863122026],[37.51535088536622,55.921657349708674],[37.515449712518716,55.92159038896851],[37.515536546335454,55.92151837647013],[37.515610573193136,55.92144198701908],[37.51567109949092,55.921361936431815],[37.51571755814768,55.92127897482757],[37.51574951391316,55.92119387959861],[37.515766667443344,55.92110744812524],[37.51576885810197,55.92102049030375],[37.51575606546211,55.92093382095708],[37.51574756422595,55.92089762102333],[37.515721507655776,55.92081596323958],[37.515682148546475,55.920736003174],[37.51563243177053,55.92066229110768],[37.51563971329199,55.920642209386685],[37.51565580937979,55.920554308176165],[37.51565644951445,55.92046594423388],[37.51564162760847,55.920377972395194],[37.51561148715274,55.92029124369649],[37.515566319824515,55.92020659714239],[37.51550656266182,55.9201248515897],[37.51543279383221,55.92004679782629],[37.515345727036596,55.91997319092184],[37.51524620460263,55.91990474292417],[37.51513518933436,55.919842115971925],[37.51501375519719,55.91978591589014],[37.51488307692829,55.91973668633059],[37.51474441867291,55.91969490351362],[37.514599121756454,55.91966097162228],[37.514448591710746,55.91963521889311],[37.51392140437852,55.91956071965357],[37.513890919384195,55.91955658956884],[37.51338497889507,55.91949098356135],[37.51326982819333,55.9194400163197],[37.51313742326192,55.919392441183035],[37.5129973437576,55.919352391753044],[37.51285094183315,55.91932025461033],[37.51269963065736,55.91929633996047],[37.51251463515653,55.919272540179456],[37.51235666210488,55.91925685021262],[37.512196685150045,55.91925012283723],[37.512036312686874,55.919252425689145],[37.5118771570856,55.91926373561509],[37.5117208184845,55.91928393890536],[37.51156886870556,55.91931283243692],[37.51142283545441,55.91935012571519],[37.51128418696343,55.919395443794045],[37.511154317232275,55.9194483310449],[37.51103453201393,55.91950825573677],[37.51092603568739,55.91957461538145],[37.510829919148605,55.91964674279004],[37.51074714884164,55.919723912780064],[37.51067855704025,55.91980534946562],[37.51062483347767,55.91989023405753],[37.510586518408736,55.91997771309498],[37.5105792610219,55.91999878904017],[37.51051666716187,55.92005781608866],[37.510496602771234,55.92007928383564]]]}}]}