{
  "type": "FeatureCollection",
  "features": [
    {
      "type": "Feature",
      "geometry": {
        "type": "Point",
        "coordinates": [
          37.5263415,
          55.8965999
        ]
      },
      "properties": {
        "number": "1",
        "district": "АВД САО",
        "address": "Ижорская 17-19",
        "area_m2": "10000.0",
        "note": "Сохраняется",
        "source_period": "2025-2026",
        "geocode_status": "candidate",
        "latitude": "55.8965999",
        "longitude": "37.5263415",
        "geocode_label": "Ижорская улица, Дмитровский, Дмитровский район, Москва, Центральный федеральный округ, 127644, Россия",
        "name": "Место временного складирования снега: Ижорская 17-19",
        "verification": "Кандидат геокодера; сверить перед служебным использованием"
      }
    },
    {
      "type": "Feature",
      "geometry": {
        "type": "Point",
        "coordinates": [
          37.5330544,
          55.8020345
        ]
      },
      "properties": {
        "number": "2",
        "district": "Аэропорт",
        "address": "ул. Черняховского, вл. 19",
        "area_m2": "20500.0",
        "note": "Сохраняется",
        "source_period": "2025-2026",
        "geocode_status": "candidate",
        "latitude": "55.8020345",
        "longitude": "37.5330544",
        "geocode_label": "улица Черняховского, район Аэропорт, Москва, Центральный федеральный округ, 125319, Россия",
        "name": "Место временного складирования снега: ул. Черняховского, вл. 19",
        "verification": "Кандидат геокодера; сверить перед служебным использованием"
      }
    },
    {
      "type": "Feature",
      "geometry": {
        "type": "Point",
        "coordinates": [
          37.549318,
          55.7727921
        ]
      },
      "properties": {
        "number": "4",
        "district": "Беговой",
        "address": "Брянский пост",
        "area_m2": "4000.0",
        "note": "На участке завершены работы по возвезению новой базы ГБУ",
        "source_period": "2025-2026",
        "geocode_status": "candidate",
        "latitude": "55.7727921",
        "longitude": "37.5493180",
        "geocode_label": "улица Брянский Пост, Пресненский район, Москва, Центральный федеральный округ, 125284, Россия",
        "name": "Место временного складирования снега: Брянский пост",
        "verification": "Кандидат геокодера; сверить перед служебным использованием"
      }
    },
    {
      "type": "Feature",
      "geometry": {
        "type": "Point",
        "coordinates": [
          37.5086897,
          55.8336384
        ]
      },
      "properties": {
        "number": "6",
        "district": "Войковский",
        "address": "Нарвская 2",
        "area_m2": "750.0",
        "note": "Планируется СМР базы ГБУ",
        "source_period": "2025-2026",
        "geocode_status": "candidate",
        "latitude": "55.8336384",
        "longitude": "37.5086897",
        "geocode_label": "2, Нарвская улица, район Коптево, Москва, Центральный федеральный округ, 125130, Россия",
        "name": "Место временного складирования снега: Нарвская 2",
        "verification": "Кандидат геокодера; сверить перед служебным использованием"
      }
    },
    {
      "type": "Feature",
      "geometry": {
        "type": "Point",
        "coordinates": [
          37.567249,
          55.8790927
        ]
      },
      "properties": {
        "number": "7",
        "district": "Восточное Дегунино",
        "address": "Керамический проезд вл.63",
        "area_m2": "6500.0",
        "note": "Сохраняется",
        "source_period": "2025-2026",
        "geocode_status": "candidate",
        "latitude": "55.8790927",
        "longitude": "37.5672490",
        "geocode_label": "Керамический проезд, район Восточное Дегунино, Москва, Центральный федеральный округ, 127540, Россия",
        "name": "Место временного складирования снега: Керамический проезд вл.63",
        "verification": "Кандидат геокодера; сверить перед служебным использованием"
      }
    },
    {
      "type": "Feature",
      "geometry": {
        "type": "Point",
        "coordinates": [
          37.4990503,
          55.8520736
        ]
      },
      "properties": {
        "number": "10",
        "district": "Головинский",
        "address": "Лавочкина 26",
        "area_m2": "8500.0",
        "note": "На участке установлен бытовой городок МФР",
        "source_period": "2025-2026",
        "geocode_status": "candidate",
        "latitude": "55.8520736",
        "longitude": "37.4990503",
        "geocode_label": "26, улица Лавочкина, район Ховрино, Москва, Центральный федеральный округ, 125581, Россия",
        "name": "Место временного складирования снега: Лавочкина 26",
        "verification": "Кандидат геокодера; сверить перед служебным использованием"
      }
    },
    {
      "type": "Feature",
      "geometry": {
        "type": "Point",
        "coordinates": [
          37.4880549,
          55.8845051
        ]
      },
      "properties": {
        "number": "11",
        "district": "Западное Дегунино",
        "address": "ул. Краснополянская, вл. 2/6",
        "area_m2": "5800.0",
        "note": "Сохраняется",
        "source_period": "2025-2026",
        "geocode_status": "candidate",
        "latitude": "55.8845051",
        "longitude": "37.4880549",
        "geocode_label": "Краснополянская улица, Бусиново, район Западное Дегунино, Москва, Центральный федеральный округ, 125599, Россия",
        "name": "Место временного складирования снега: ул. Краснополянская, вл. 2/6",
        "verification": "Кандидат геокодера; сверить перед служебным использованием"
      }
    },
    {
      "type": "Feature",
      "geometry": {
        "type": "Point",
        "coordinates": [
          37.5007565,
          55.8862809
        ]
      },
      "properties": {
        "number": "12",
        "district": "Западное Дегунино",
        "address": "Ижорская 4",
        "area_m2": "8000.0",
        "note": "Сохраняется",
        "source_period": "2025-2026",
        "geocode_status": "candidate",
        "latitude": "55.8862809",
        "longitude": "37.5007565",
        "geocode_label": "7 с4, Ижорская улица, Бусиново, район Западное Дегунино, Москва, Центральный федеральный округ, 125599, Россия",
        "name": "Место временного складирования снега: Ижорская 4",
        "verification": "Кандидат геокодера; сверить перед служебным использованием"
      }
    },
    {
      "type": "Feature",
      "geometry": {
        "type": "Point",
        "coordinates": [
          37.5521173,
          55.8460483
        ]
      },
      "properties": {
        "number": "14",
        "district": "Коптево",
        "address": "Черепановых вл.3",
        "area_m2": "8000.0",
        "note": "Сохраняется",
        "source_period": "2025-2026",
        "geocode_status": "candidate",
        "latitude": "55.8460483",
        "longitude": "37.5521173",
        "geocode_label": "проезд Черепановых, район Коптево, Москва, Центральный федеральный округ, 125183, Россия",
        "name": "Место временного складирования снега: Черепановых вл.3",
        "verification": "Кандидат геокодера; сверить перед служебным использованием"
      }
    },
    {
      "type": "Feature",
      "geometry": {
        "type": "Point",
        "coordinates": [
          37.5086897,
          55.8336384
        ]
      },
      "properties": {
        "number": "15",
        "district": "Коптево",
        "address": "Нарвская 2",
        "area_m2": "15000.0",
        "note": "Планируется СМР базы ГБУ",
        "source_period": "2025-2026",
        "geocode_status": "candidate",
        "latitude": "55.8336384",
        "longitude": "37.5086897",
        "geocode_label": "2, Нарвская улица, район Коптево, Москва, Центральный федеральный округ, 125130, Россия",
        "name": "Место временного складирования снега: Нарвская 2",
        "verification": "Кандидат геокодера; сверить перед служебным использованием"
      }
    },
    {
      "type": "Feature",
      "geometry": {
        "type": "Point",
        "coordinates": [
          37.5043285,
          55.8620377
        ]
      },
      "properties": {
        "number": "17",
        "district": "Левобережный",
        "address": "Фестивальная улица, вл. 6",
        "area_m2": "5500.0",
        "note": "Выход подрядчика на работы в октябре 2026",
        "source_period": "2025-2026",
        "geocode_status": "candidate",
        "latitude": "55.8620377",
        "longitude": "37.5043285",
        "geocode_label": "Фестивальная улица, район Ховрино, Москва, Центральный федеральный округ, 125414, Россия",
        "name": "Место временного складирования снега: Фестивальная улица, вл. 6",
        "verification": "Кандидат геокодера; сверить перед служебным использованием"
      }
    },
    {
      "type": "Feature",
      "geometry": {
        "type": "Point",
        "coordinates": [
          37.3728248,
          55.9392079
        ]
      },
      "properties": {
        "number": "18",
        "district": "Молжаниновский",
        "address": "Ленинградское шоссе 288",
        "area_m2": "2500.0",
        "note": "Сохраняется",
        "source_period": "2025-2026",
        "geocode_status": "candidate",
        "latitude": "55.9392079",
        "longitude": "37.3728248",
        "geocode_label": "288, Ленинградское шоссе, Молжаниновский район, Москва, Центральный федеральный округ, 141501, Россия",
        "name": "Место временного складирования снега: Ленинградское шоссе 288",
        "verification": "Кандидат геокодера; сверить перед служебным использованием"
      }
    },
    {
      "type": "Feature",
      "geometry": {
        "type": "Point",
        "coordinates": [
          37.5642799,
          55.8076638
        ]
      },
      "properties": {
        "number": "20",
        "district": "Тимирязевский",
        "address": "Дмитровский проезд 18",
        "area_m2": "10000.0",
        "note": "Сохраняется",
        "source_period": "2025-2026",
        "geocode_status": "candidate",
        "latitude": "55.8076638",
        "longitude": "37.5642799",
        "geocode_label": "18, Дмитровский проезд, Тимирязевский район, Москва, Центральный федеральный округ, 125206, Россия",
        "name": "Место временного складирования снега: Дмитровский проезд 18",
        "verification": "Кандидат геокодера; сверить перед служебным использованием"
      }
    },
    {
      "type": "Feature",
      "geometry": {
        "type": "Point",
        "coordinates": [
          37.4843825,
          55.8797096
        ]
      },
      "properties": {
        "number": "21",
        "district": "Ховрино",
        "address": "Библиотечный 2б",
        "area_m2": "3500.0",
        "note": "Завершение работ по благоустройству в сентябре (ТПУ)",
        "source_period": "2025-2026",
        "geocode_status": "candidate",
        "latitude": "55.8797096",
        "longitude": "37.4843825",
        "geocode_label": "2Б, Библиотечный проезд, район Ховрино, Москва, Центральный федеральный округ, 125475, Россия",
        "name": "Место временного складирования снега: Библиотечный 2б",
        "verification": "Кандидат геокодера; сверить перед служебным использованием"
      }
    },
    {
      "type": "Feature",
      "geometry": {
        "type": "Point",
        "coordinates": [
          37.5037918,
          55.870919
        ]
      },
      "properties": {
        "number": "22",
        "district": "Ховрино",
        "address": "Зеленоградская 18Б",
        "area_m2": "5000.0",
        "note": "Сохраняется",
        "source_period": "2025-2026",
        "geocode_status": "candidate",
        "latitude": "55.8709190",
        "longitude": "37.5037918",
        "geocode_label": "18Б, Зеленоградская улица, район Ховрино, Москва, Центральный федеральный округ, 125475, Россия",
        "name": "Место временного складирования снега: Зеленоградская 18Б",
        "verification": "Кандидат геокодера; сверить перед служебным использованием"
      }
    },
    {
      "type": "Feature",
      "geometry": {
        "type": "Point",
        "coordinates": [
          37.5200337,
          55.7776455
        ]
      },
      "properties": {
        "number": "23",
        "district": "Хорошевский",
        "address": "Хорошевское шоссе 100",
        "area_m2": "8000.0",
        "note": "Выход подрядчика на работы в июне (Концессия)",
        "source_period": "2025-2026",
        "geocode_status": "candidate",
        "latitude": "55.7776455",
        "longitude": "37.5200337",
        "geocode_label": "Хорошёвское шоссе, Хорошёвский район, Москва, Центральный федеральный округ, 123007, Россия",
        "name": "Место временного складирования снега: Хорошевское шоссе 100",
        "verification": "Кандидат геокодера; сверить перед служебным использованием"
      }
    },
    {
      "type": "Feature",
      "geometry": {
        "type": "Point",
        "coordinates": [
          37.5085176,
          55.7801756
        ]
      },
      "properties": {
        "number": "24",
        "district": "Хорошевский",
        "address": "Зорге 7",
        "area_m2": "1500.0",
        "note": "Выход подрядчика на работы в июне (Концессия)",
        "source_period": "2025-2026",
        "geocode_status": "candidate",
        "latitude": "55.7801756",
        "longitude": "37.5085176",
        "geocode_label": "7 с1, улица Зорге, Хорошёвский район, Москва, Центральный федеральный округ, 125252, Россия",
        "name": "Место временного складирования снега: Зорге 7",
        "verification": "Кандидат геокодера; сверить перед служебным использованием"
      }
    },
    {
      "type": "Feature",
      "geometry": {
        "type": "Point",
        "coordinates": [
          37.503782,
          55.7950648
        ]
      },
      "properties": {
        "number": "25",
        "district": "Хорошевский",
        "address": "Зорге 25",
        "area_m2": "2800.0",
        "note": "Ведутся СМР (Концессия)",
        "source_period": "2025-2026",
        "geocode_status": "candidate",
        "latitude": "55.7950648",
        "longitude": "37.5037820",
        "geocode_label": "25, улица Зорге, район Сокол, Москва, Центральный федеральный округ, 123298, Россия",
        "name": "Место временного складирования снега: Зорге 25",
        "verification": "Кандидат геокодера; сверить перед служебным использованием"
      }
    },
    {
      "type": "Feature",
      "geometry": {
        "type": "Point",
        "coordinates": [
          37.6174782,
          55.7505412
        ]
      },
      "properties": {
        "number": "1",
        "district": "2.0",
        "address": "3.0",
        "area_m2": "4.0",
        "note": "5.0",
        "source_period": "2025-2026",
        "geocode_status": "candidate",
        "latitude": "55.7505412",
        "longitude": "37.6174782",
        "geocode_label": "Москва, Центральный федеральный округ, Россия",
        "name": "Место временного складирования снега: 3.0",
        "verification": "Кандидат геокодера; сверить перед служебным использованием"
      }
    },
    {
      "type": "Feature",
      "geometry": {
        "type": "Point",
        "coordinates": [
          37.5475803,
          55.8448647
        ]
      },
      "properties": {
        "number": "3",
        "district": "Головинский",
        "address": "Проезд Черепановых 23-29А",
        "area_m2": "26000.0",
        "note": "ГКУ \"Дирекция ДЖКиБ САО\"",
        "source_period": "2025-2026",
        "geocode_status": "candidate",
        "latitude": "55.8448647",
        "longitude": "37.5475803",
        "geocode_label": "проезд Черепановых, район Коптево, Москва, Центральный федеральный округ, 125183, Россия",
        "name": "Место временного складирования снега: Проезд Черепановых 23-29А",
        "verification": "Кандидат геокодера; сверить перед служебным использованием"
      }
    },
    {
      "type": "Feature",
      "geometry": {
        "type": "Point",
        "coordinates": [
          37.5087509,
          55.8878541
        ]
      },
      "properties": {
        "number": "5",
        "district": "Дмитровский",
        "address": "Ижорская  улица 9Бс2",
        "area_m2": "28000.0",
        "note": "ГКУ \"Дирекция ДЖКиБ САО\"",
        "source_period": "2025-2026",
        "geocode_status": "candidate",
        "latitude": "55.8878541",
        "longitude": "37.5087509",
        "geocode_label": "Ижорская улица, Дмитровский, Дмитровский район, Москва, Центральный федеральный округ, 125599, Россия",
        "name": "Место временного складирования снега: Ижорская  улица 9Бс2",
        "verification": "Кандидат геокодера; сверить перед служебным использованием"
      }
    },
    {
      "type": "Feature",
      "geometry": {
        "type": "Point",
        "coordinates": [
          37.5109271,
          55.8945773
        ]
      },
      "properties": {
        "number": "6",
        "district": "Дмитровский",
        "address": "Ижорская улица, 9",
        "area_m2": "30899.0",
        "note": "ГКУ \"Дирекция ДЖКиБ САО\"",
        "source_period": "2025-2026",
        "geocode_status": "candidate",
        "latitude": "55.8945773",
        "longitude": "37.5109271",
        "geocode_label": "Котельно-турбинное отделение № 1, 9 с1, Ижорская улица, Дмитровский, Дмитровский район, Москва, Центральный федеральный округ, 125412, Россия",
        "name": "Место временного складирования снега: Ижорская улица, 9",
        "verification": "Кандидат геокодера; сверить перед служебным использованием"
      }
    },
    {
      "type": "Feature",
      "geometry": {
        "type": "Point",
        "coordinates": [
          37.5011558,
          55.8147905
        ]
      },
      "properties": {
        "number": "10",
        "district": "Левобережный",
        "address": "Ленинградское ш., вл. 73",
        "area_m2": "6200.0",
        "note": "Управы района",
        "source_period": "2025-2026",
        "geocode_status": "candidate",
        "latitude": "55.8147905",
        "longitude": "37.5011558",
        "geocode_label": "Ленинградское шоссе, район Сокол, Москва, Центральный федеральный округ, 125493, Россия",
        "name": "Место временного складирования снега: Ленинградское ш., вл. 73",
        "verification": "Кандидат геокодера; сверить перед служебным использованием"
      }
    },
    {
      "type": "Feature",
      "geometry": {
        "type": "Point",
        "coordinates": [
          37.3519439,
          55.9352955
        ]
      },
      "properties": {
        "number": "11",
        "district": "Молжаниновский",
        "address": "Новосходненское ш. 2",
        "area_m2": "8800.0",
        "note": "Управления строительства, реконструкции, землепользования",
        "source_period": "2025-2026",
        "geocode_status": "candidate",
        "latitude": "55.9352955",
        "longitude": "37.3519439",
        "geocode_label": "170/2, Новосходненское шоссе, Верескино, Молжаниновский район, Москва, Центральный федеральный округ, 141431, Россия",
        "name": "Место временного складирования снега: Новосходненское ш. 2",
        "verification": "Кандидат геокодера; сверить перед служебным использованием"
      }
    },
    {
      "type": "Feature",
      "geometry": {
        "type": "Point",
        "coordinates": [
          37.3557337,
          55.9509867
        ]
      },
      "properties": {
        "number": "13",
        "district": "Молжаниновский",
        "address": "Приозёрная улица, 42А",
        "area_m2": "278700.0",
        "note": "ГКУ \"Дирекция ДЖКиБ САО\"",
        "source_period": "2025-2026",
        "geocode_status": "candidate",
        "latitude": "55.9509867",
        "longitude": "37.3557337",
        "geocode_label": "Приозёрная улица, Черкизово, Молжаниновский район, Москва, Центральный федеральный округ, 141431, Россия",
        "name": "Место временного складирования снега: Приозёрная улица, 42А",
        "verification": "Кандидат геокодера; сверить перед служебным использованием"
      }
    },
    {
      "type": "Feature",
      "geometry": {
        "type": "Point",
        "coordinates": [
          38.1469847,
          55.8918397
        ]
      },
      "properties": {
        "number": "15",
        "district": "Сокол",
        "address": "Светлый пр-д, 2",
        "area_m2": "2500.0",
        "note": "Управления строительства, реконструкции, землепользования",
        "source_period": "2025-2026",
        "geocode_status": "candidate",
        "latitude": "55.8918397",
        "longitude": "38.1469847",
        "geocode_label": "Светлый проезд, Свердловский, городской округ Лосино-Петровский, Московская область, Центральный федеральный округ, 141140, Россия",
        "name": "Место временного складирования снега: Светлый пр-д, 2",
        "verification": "Кандидат геокодера; сверить перед служебным использованием"
      }
    },
    {
      "type": "Feature",
      "geometry": {
        "type": "Point",
        "coordinates": [
          37.5261862,
          55.7608391
        ]
      },
      "properties": {
        "number": "16",
        "district": "Хорошевский",
        "address": "2-я Магистральная ул., вл. 18",
        "area_m2": "5300.0",
        "note": "Управления строительства, реконструкции, землепользования",
        "source_period": "2025-2026",
        "geocode_status": "candidate",
        "latitude": "55.7608391",
        "longitude": "37.5261862",
        "geocode_label": "2-я Магистральная улица, Хорошёвский район, Москва, Центральный федеральный округ, 123290, Россия",
        "name": "Место временного складирования снега: 2-я Магистральная ул., вл. 18",
        "verification": "Кандидат геокодера; сверить перед служебным использованием"
      }
    }
  ]
}