<?xml version="1.0" encoding="UTF-8"?>
<gpx version="1.1" creator="karta-sao-smm" xmlns="http://www.topografix.com/GPX/1/1">
<trk><name>dt1-inner-yard-reference</name><trkseg>
<trkpt lat="55.794401" lon="37.512217"/>
<trkpt lat="55.794477" lon="37.511947"/>
<trkpt lat="55.794646" lon="37.512080"/>
<trkpt lat="55.794573" lon="37.512352"/>
<trkpt lat="55.794675" lon="37.512432"/>
<trkpt lat="55.794628" lon="37.512625"/>
<trkpt lat="55.794551" lon="37.512933"/>
<trkpt lat="55.794126" lon="37.512599"/>
<trkpt lat="55.794203" lon="37.512291"/>
<trkpt lat="55.794628" lon="37.512625"/>
<trkpt lat="55.794401" lon="37.512217"/>
</trkseg></trk>
</gpx>
