<?xml version="1.0" encoding="UTF-8"?>
<gpx version="1.1" creator="karta-sao-smm" xmlns="http://www.topografix.com/GPX/1/1">
<trk><name>dt2-inner-yard-reference</name><trkseg>
<trkpt lat="55.877979" lon="37.560962"/>
<trkpt lat="55.877978" lon="37.561476"/>
<trkpt lat="55.876897" lon="37.561451"/>
<trkpt lat="55.876982" lon="37.561677"/>
<trkpt lat="55.877017" lon="37.561670"/>
<trkpt lat="55.877154" lon="37.561643"/>
<trkpt lat="55.877265" lon="37.561538"/>
<trkpt lat="55.877307" lon="37.561498"/>
<trkpt lat="55.877978" lon="37.561476"/>
<trkpt lat="55.878056" lon="37.561476"/>
<trkpt lat="55.878098" lon="37.561476"/>
</trkseg></trk>
</gpx>
