<?xml version="1.0" encoding="UTF-8"?>
<gpx version="1.1" creator="karta-sao-smm" xmlns="http://www.topografix.com/GPX/1/1">
<trk><name>dt3</name><trkseg><trkpt lat="55.866290" lon="37.559083"/><trkpt lat="55.866301" lon="37.559074"/><trkpt lat="55.866303" lon="37.559071"/><trkpt lat="55.866303" lon="37.559070"/><trkpt lat="55.866342" lon="37.559037"/><trkpt lat="55.866433" lon="37.558961"/><trkpt lat="55.866501" lon="37.558906"/><trkpt lat="55.866545" lon="37.558874"/><trkpt lat="55.866574" lon="37.558852"/><trkpt lat="55.866586" lon="37.558840"/><trkpt lat="55.866735" lon="37.558723"/><trkpt lat="55.866759" lon="37.558705"/><trkpt lat="55.866762" lon="37.558715"/><trkpt lat="55.866771" lon="37.558707"/><trkpt lat="55.866769" lon="37.558697"/><trkpt lat="55.866812" lon="37.558665"/><trkpt lat="55.866826" lon="37.558652"/><trkpt lat="55.866842" lon="37.558637"/><trkpt lat="55.866854" lon="37.558626"/><trkpt lat="55.866855" lon="37.558632"/><trkpt lat="55.866860" lon="37.558653"/><trkpt lat="55.866868" lon="37.558684"/><trkpt lat="55.866870" lon="37.558689"/><trkpt lat="55.866872" lon="37.558695"/><trkpt lat="55.866874" lon="37.558700"/><trkpt lat="55.866905" lon="37.558838"/><trkpt lat="55.866911" lon="37.558868"/><trkpt lat="55.866933" lon="37.558966"/><trkpt lat="55.866939" lon="37.559027"/><trkpt lat="55.866950" lon="37.559127"/><trkpt lat="55.866950" lon="37.559133"/><trkpt lat="55.866950" lon="37.559140"/><trkpt lat="55.866949" lon="37.559228"/><trkpt lat="55.866951" lon="37.559265"/><trkpt lat="55.866954" lon="37.559346"/><trkpt lat="55.866960" lon="37.559461"/><trkpt lat="55.866966" lon="37.559566"/><trkpt lat="55.866968" lon="37.559585"/><trkpt lat="55.866968" lon="37.559591"/><trkpt lat="55.866987" lon="37.559819"/><trkpt lat="55.866990" lon="37.559861"/><trkpt lat="55.867001" lon="37.559929"/><trkpt lat="55.867006" lon="37.559963"/><trkpt lat="55.867009" lon="37.559980"/><trkpt lat="55.867019" lon="37.560044"/><trkpt lat="55.866936" lon="37.560089"/><trkpt lat="55.866935" lon="37.560084"/><trkpt lat="55.866933" lon="37.560074"/><trkpt lat="55.866929" lon="37.560060"/><trkpt lat="55.866926" lon="37.560055"/><trkpt lat="55.866924" lon="37.560053"/><trkpt lat="55.866919" lon="37.560051"/><trkpt lat="55.866906" lon="37.560051"/><trkpt lat="55.866903" lon="37.560052"/><trkpt lat="55.866894" lon="37.559978"/><trkpt lat="55.866897" lon="37.559977"/><trkpt lat="55.866895" lon="37.559967"/><trkpt lat="55.866894" lon="37.559967"/><trkpt lat="55.866886" lon="37.559898"/><trkpt lat="55.866885" lon="37.559894"/><trkpt lat="55.866880" lon="37.559851"/><trkpt lat="55.866868" lon="37.559754"/><trkpt lat="55.866868" lon="37.559754"/><trkpt lat="55.866869" lon="37.559754"/><trkpt lat="55.866868" lon="37.559743"/><trkpt lat="55.866861" lon="37.559676"/><trkpt lat="55.866860" lon="37.559666"/><trkpt lat="55.866859" lon="37.559666"/><trkpt lat="55.866854" lon="37.559604"/><trkpt lat="55.866854" lon="37.559600"/><trkpt lat="55.866853" lon="37.559587"/><trkpt lat="55.866848" lon="37.559544"/><trkpt lat="55.866844" lon="37.559490"/><trkpt lat="55.866819" lon="37.559504"/><trkpt lat="55.866798" lon="37.559516"/><trkpt lat="55.866735" lon="37.559557"/><trkpt lat="55.866712" lon="37.559572"/><trkpt lat="55.866709" lon="37.559574"/><trkpt lat="55.866678" lon="37.559609"/><trkpt lat="55.866675" lon="37.559613"/><trkpt lat="55.866673" lon="37.559605"/><trkpt lat="55.866475" lon="37.559738"/><trkpt lat="55.866509" lon="37.559874"/><trkpt lat="55.866512" lon="37.559885"/><trkpt lat="55.866476" lon="37.559915"/><trkpt lat="55.866475" lon="37.559917"/><trkpt lat="55.866364" lon="37.560013"/><trkpt lat="55.866384" lon="37.560105"/><trkpt lat="55.866452" lon="37.560397"/><trkpt lat="55.866453" lon="37.560401"/><trkpt lat="55.866455" lon="37.560400"/><trkpt lat="55.866455" lon="37.560400"/><trkpt lat="55.866474" lon="37.560413"/><trkpt lat="55.866425" lon="37.560465"/><trkpt lat="55.866414" lon="37.560478"/><trkpt lat="55.866389" lon="37.560504"/><trkpt lat="55.866380" lon="37.560476"/><trkpt lat="55.866336" lon="37.560325"/><trkpt lat="55.866197" lon="37.560455"/><trkpt lat="55.866043" lon="37.560549"/><trkpt lat="55.865929" lon="37.560636"/><trkpt lat="55.865899" lon="37.560505"/><trkpt lat="55.865934" lon="37.560476"/><trkpt lat="55.865903" lon="37.560345"/><trkpt lat="55.865944" lon="37.560314"/><trkpt lat="55.865930" lon="37.560239"/><trkpt lat="55.865917" lon="37.560169"/><trkpt lat="55.865906" lon="37.560106"/><trkpt lat="55.865803" lon="37.560151"/><trkpt lat="55.865799" lon="37.560135"/><trkpt lat="55.865770" lon="37.560157"/><trkpt lat="55.865753" lon="37.560169"/><trkpt lat="55.865726" lon="37.560189"/><trkpt lat="55.865692" lon="37.560043"/><trkpt lat="55.865689" lon="37.560029"/><trkpt lat="55.865688" lon="37.560024"/><trkpt lat="55.865684" lon="37.560026"/><trkpt lat="55.865680" lon="37.560010"/><trkpt lat="55.865684" lon="37.560007"/><trkpt lat="55.865674" lon="37.559967"/><trkpt lat="55.865668" lon="37.559969"/><trkpt lat="55.865665" lon="37.559954"/><trkpt lat="55.865670" lon="37.559949"/><trkpt lat="55.865667" lon="37.559938"/><trkpt lat="55.865636" lon="37.559810"/><trkpt lat="55.865627" lon="37.559775"/><trkpt lat="55.865592" lon="37.559637"/><trkpt lat="55.865589" lon="37.559627"/><trkpt lat="55.865616" lon="37.559605"/><trkpt lat="55.865632" lon="37.559592"/><trkpt lat="55.865658" lon="37.559570"/><trkpt lat="55.865662" lon="37.559567"/><trkpt lat="55.865694" lon="37.559541"/><trkpt lat="55.865734" lon="37.559511"/><trkpt lat="55.865743" lon="37.559499"/><trkpt lat="55.865745" lon="37.559498"/><trkpt lat="55.865773" lon="37.559476"/><trkpt lat="55.865849" lon="37.559419"/><trkpt lat="55.865971" lon="37.559328"/><trkpt lat="55.866011" lon="37.559298"/><trkpt lat="55.866016" lon="37.559295"/><trkpt lat="55.866023" lon="37.559290"/><trkpt lat="55.866032" lon="37.559283"/><trkpt lat="55.866042" lon="37.559275"/><trkpt lat="55.866052" lon="37.559268"/><trkpt lat="55.866132" lon="37.559207"/><trkpt lat="55.866150" lon="37.559193"/><trkpt lat="55.866154" lon="37.559204"/><trkpt lat="55.866177" lon="37.559186"/><trkpt lat="55.866175" lon="37.559174"/><trkpt lat="55.866288" lon="37.559085"/><trkpt lat="55.866290" lon="37.559083"/></trkseg></trk>
</gpx>
