<?xml version="1.0" encoding="UTF-8"?>
<gpx version="1.1" creator="karta-sao-smm" xmlns="http://www.topografix.com/GPX/1/1">
<trk><name>dt4</name><trkseg><trkpt lat="55.81062673" lon="37.53448333"/><trkpt lat="55.81062673" lon="37.53649017"/><trkpt lat="55.81073453" lon="37.53649017"/><trkpt lat="55.81073453" lon="37.53649017"/><trkpt lat="55.81073453" lon="37.53448333"/><trkpt lat="55.81084233" lon="37.53448333"/><trkpt lat="55.81084233" lon="37.53448333"/><trkpt lat="55.81084233" lon="37.53649017"/><trkpt lat="55.81095012" lon="37.53649017"/><trkpt lat="55.81095012" lon="37.53649017"/><trkpt lat="55.81095012" lon="37.53448333"/><trkpt lat="55.81105792" lon="37.53448333"/><trkpt lat="55.81105792" lon="37.53448333"/><trkpt lat="55.81105792" lon="37.53649017"/><trkpt lat="55.81116572" lon="37.53649017"/><trkpt lat="55.81116572" lon="37.53649017"/><trkpt lat="55.81116572" lon="37.53448333"/></trkseg></trk>
</gpx>
