<?xml version="1.0" encoding="UTF-8"?>
<gpx version="1.1" creator="karta-sao-smm" xmlns="http://www.topografix.com/GPX/1/1">
<trk><name>dt5</name><trkseg><trkpt lat="55.823076" lon="37.508647"/><trkpt lat="55.823039" lon="37.508913"/><trkpt lat="55.822998" lon="37.508948"/><trkpt lat="55.822856" lon="37.508855"/><trkpt lat="55.822843" lon="37.508763"/><trkpt lat="55.822875" lon="37.508647"/><trkpt lat="55.822888" lon="37.508512"/><trkpt lat="55.822929" lon="37.508475"/><trkpt lat="55.823068" lon="37.508575"/><trkpt lat="55.823076" lon="37.508647"/></trkseg></trk>
</gpx>
